{
"type": "FeatureCollection",
"name": "community_sites_points",
"crs": { "type": "name", "properties": { "name": "urn:ogc:def:crs:OGC:1.3:CRS84" } },
"features": [
{ "type": "Feature", "properties": { "osm_id": "32120084", "name": "Van Pelt Library", "addr:housenumber": "3420", "addr:street": "Walnut Street", "addr:postcode": "19104", "amenity": "library" }, "geometry": { "type": "Point", "coordinates": [ -75.193913901499187, 39.952701158892836 ] } },
{ "type": "Feature", "properties": { "osm_id": "32122450", "name": "Parkway Central Library", "addr:housenumber": "1901", "addr:street": "Vine Street", "addr:postcode": "19103", "amenity": "library" }, "geometry": { "type": "Point", "coordinates": [ -75.171018125782794, 39.959592294626987 ] } },
{ "type": "Feature", "properties": { "osm_id": "42784822", "name": "Reading Terminal Market", "addr:housenumber": "51", "addr:street": "North 12th Street", "addr:postcode": "19107", "amenity": "marketplace" }, "geometry": { "type": "Point", "coordinates": [ -75.159047677858524, 39.953148448251909 ] } },
{ "type": "Feature", "properties": { "osm_id": "52495252", "name": "Immaculate Heart of Mary", "addr:housenumber": "819", "addr:street": "Cathedral Road", "addr:postcode": "19128", "amenity": "place_of_worship" }, "geometry": { "type": "Point", "coordinates": [ -75.235654766808338, 40.06436940501446 ] } },
{ "type": "Feature", "properties": { "osm_id": "52495485", "name": "Andorra Library", "addr:housenumber": "705", "addr:street": "East Cathedral Road", "addr:postcode": "19128", "amenity": "library" }, "geometry": { "type": "Point", "coordinates": [ -75.238411950812903, 40.064362649124554 ] } },
{ "type": "Feature", "properties": { "osm_id": "60925702", "name": "Paul J. Gutman Library", "addr:housenumber": "3243", "addr:street": "West School House Lane", "addr:postcode": null, "amenity": "library" }, "geometry": { "type": "Point", "coordinates": [ -75.191064828369761, 40.022295962909439 ] } },
{ "type": "Feature", "properties": { "osm_id": "60926708", "name": "Memorial Church of the Good Shepherd", "addr:housenumber": "3816", "addr:street": "The Oak Road", "addr:postcode": null, "amenity": "place_of_worship" }, "geometry": { "type": "Point", "coordinates": [ -75.183211267593308, 40.022217152555079 ] } },
{ "type": "Feature", "properties": { "osm_id": "60944305", "name": "St. Bridget Rectory", "addr:housenumber": "3669", "addr:street": "Midvale Avenue", "addr:postcode": null, "amenity": "place_of_worship" }, "geometry": { "type": "Point", "coordinates": [ -75.193583083523535, 40.010871419282061 ] } },
{ "type": "Feature", "properties": { "osm_id": "60946529", "name": "Falls of Schuylkill Library", "addr:housenumber": "3501", "addr:street": "Midvale Avenue", "addr:postcode": null, "amenity": "library" }, "geometry": { "type": "Point", "coordinates": [ -75.192376391636643, 40.01430341850503 ] } },
{ "type": "Feature", "properties": { "osm_id": "61117646", "name": "East Falls Presbyterian Church", "addr:housenumber": "3800", "addr:street": "Vaux Street", "addr:postcode": null, "amenity": "place_of_worship" }, "geometry": { "type": "Point", "coordinates": [ -75.190123324946171, 40.016239298235142 ] } },
{ "type": "Feature", "properties": { "osm_id": "99959792", "name": "Walnut Street West", "addr:housenumber": "201", "addr:street": "South 40th Street", "addr:postcode": "19104", "amenity": "library" }, "geometry": { "type": "Point", "coordinates": [ -75.202465445599188, 39.953799592953985 ] } },
{ "type": "Feature", "properties": { "osm_id": "121319301", "name": "W. W. Hagerty Library", "addr:housenumber": "3300", "addr:street": "Market Street", "addr:postcode": "19104", "amenity": "library" }, "geometry": { "type": "Point", "coordinates": [ -75.189978199446799, 39.955205950351932 ] } },
{ "type": "Feature", "properties": { "osm_id": "164655923", "name": "Saint Mary's Church", "addr:housenumber": "3916", "addr:street": "Locust Walk", "addr:postcode": "19104", "amenity": "place_of_worship" }, "geometry": { "type": "Point", "coordinates": [ -75.20183946711947, 39.952519185322217 ] } },
{ "type": "Feature", "properties": { "osm_id": "171421307", "name": "Evangelical Lutheran Church of the Trinity", "addr:housenumber": "2300", "addr:street": "South 18th Street", "addr:postcode": null, "amenity": "place_of_worship" }, "geometry": { "type": "Point", "coordinates": [ -75.176989353466354, 39.922508832772486 ] } },
{ "type": "Feature", "properties": { "osm_id": "189703378", "name": "Richmond Library", "addr:housenumber": "2987", "addr:street": "Almond Street", "addr:postcode": "19134", "amenity": "library" }, "geometry": { "type": "Point", "coordinates": [ -75.108372560678774, 39.982810441682119 ] } },
{ "type": "Feature", "properties": { "osm_id": "193817072", "name": "Jevovah's Witness Kingdom Hall", "addr:housenumber": "2801", "addr:street": "North 19th Street", "addr:postcode": null, "amenity": "place_of_worship" }, "geometry": { "type": "Point", "coordinates": [ -75.161435679550266, 39.997102495913936 ] } },
{ "type": "Feature", "properties": { "osm_id": "193817073", "name": "Cathedral of Faith Baptist Church", "addr:housenumber": "1800", "addr:street": "West Cambria Street", "addr:postcode": null, "amenity": "place_of_worship" }, "geometry": { "type": "Point", "coordinates": [ -75.160395884159485, 39.997310337046045 ] } },
{ "type": "Feature", "properties": { "osm_id": "197417989", "name": "Roxborough Library", "addr:housenumber": "6245", "addr:street": "Ridge Avenue", "addr:postcode": "19128", "amenity": "library" }, "geometry": { "type": "Point", "coordinates": [ -75.218201225406531, 40.036732677127318 ] } },
{ "type": "Feature", "properties": { "osm_id": "200170564", "name": "Krauth Memorial Library", "addr:housenumber": null, "addr:street": "Germantown Avenue", "addr:postcode": null, "amenity": "library" }, "geometry": { "type": "Point", "coordinates": [ -75.190386371585873, 40.062329309121843 ] } },
{ "type": "Feature", "properties": { "osm_id": "223364666", "name": "Edward G. Rosen Center for Jewish Life (Temple University Hillel)", "addr:housenumber": "1441", "addr:street": "West Norris Street", "addr:postcode": null, "amenity": "place_of_worship" }, "geometry": { "type": "Point", "coordinates": [ -75.158368254885559, 39.98357265415865 ] } },
{ "type": "Feature", "properties": { "osm_id": "225637711", "name": "Connelly Library", "addr:housenumber": "1900", "addr:street": "West Olney Avenue", "addr:postcode": "19141", "amenity": "library" }, "geometry": { "type": "Point", "coordinates": [ -75.155160502500152, 40.039162127589016 ] } },
{ "type": "Feature", "properties": { "osm_id": "226732561", "name": "McPherson Square Library", "addr:housenumber": "601", "addr:street": "East Indiana Avenue", "addr:postcode": "19134", "amenity": "library" }, "geometry": { "type": "Point", "coordinates": [ -75.11888880887139, 39.994835551659548 ] } },
{ "type": "Feature", "properties": { "osm_id": "228624968", "name": "Roxborough Bible Chapel", "addr:housenumber": "460", "addr:street": "Dearnley Street", "addr:postcode": "19128", "amenity": "place_of_worship" }, "geometry": { "type": "Point", "coordinates": [ -75.23836893896241, 40.049555259665119 ] } },
{ "type": "Feature", "properties": { "osm_id": "229122063", "name": "St. Peter's Church", "addr:housenumber": "313", "addr:street": "Pine Street", "addr:postcode": "19106", "amenity": "place_of_worship" }, "geometry": { "type": "Point", "coordinates": [ -75.147649938995883, 39.943138759153101 ] } },
{ "type": "Feature", "properties": { "osm_id": "236790113", "name": "Kesher Israel Synagogue", "addr:housenumber": "412", "addr:street": "Lombard Street", "addr:postcode": "19147", "amenity": "place_of_worship" }, "geometry": { "type": "Point", "coordinates": [ -75.149585668461853, 39.942565146722707 ] } },
{ "type": "Feature", "properties": { "osm_id": "250806783", "name": "Congregation Rodeph Shalom", "addr:housenumber": "615", "addr:street": "North Broad Street", "addr:postcode": "19123", "amenity": "place_of_worship" }, "geometry": { "type": "Point", "coordinates": [ -75.160501856278458, 39.963727350570409 ] } },
{ "type": "Feature", "properties": { "osm_id": "250806784", "name": "Old Zion Lutheran Church", "addr:housenumber": "628", "addr:street": "North Broad Street", "addr:postcode": "19130", "amenity": "place_of_worship" }, "geometry": { "type": "Point", "coordinates": [ -75.161402946624989, 39.964715331477471 ] } },
{ "type": "Feature", "properties": { "osm_id": "250836800", "name": "Highway Mission Tabernacle", "addr:housenumber": "1801", "addr:street": "Spring Garden Street", "addr:postcode": "19130", "amenity": "place_of_worship" }, "geometry": { "type": "Point", "coordinates": [ -75.167976976801754, 39.963691986602257 ] } },
{ "type": "Feature", "properties": { "osm_id": "250863838", "name": "Enon Baptist Church", "addr:housenumber": "1831", "addr:street": "Green Street", "addr:postcode": null, "amenity": "place_of_worship" }, "geometry": { "type": "Point", "coordinates": [ -75.168778987016395, 39.965012637210748 ] } },
{ "type": "Feature", "properties": { "osm_id": "251274215", "name": "Olivet Covenant", "addr:housenumber": "610", "addr:street": "North 22nd Street", "addr:postcode": null, "amenity": "place_of_worship" }, "geometry": { "type": "Point", "coordinates": [ -75.17422499563061, 39.966581577525538 ] } },
{ "type": "Feature", "properties": { "osm_id": "251274219", "name": "Saint Francis Xavier Church", "addr:housenumber": "2319", "addr:street": "Green Street", "addr:postcode": "19130", "amenity": "place_of_worship" }, "geometry": { "type": "Point", "coordinates": [ -75.176821236248088, 39.966133079055325 ] } },
{ "type": "Feature", "properties": { "osm_id": "251274977", "name": "United for Christ Ministries", "addr:housenumber": "626", "addr:street": "North 21st Street", "addr:postcode": null, "amenity": "place_of_worship" }, "geometry": { "type": "Point", "coordinates": [ -75.172406360880004, 39.967015719814512 ] } },
{ "type": "Feature", "properties": { "osm_id": "251417989", "name": "Russian Orthodox Church of Our Lady", "addr:housenumber": "560", "addr:street": "North 20th Street", "addr:postcode": null, "amenity": "place_of_worship" }, "geometry": { "type": "Point", "coordinates": [ -75.171075489499756, 39.964235684252984 ] } },
{ "type": "Feature", "properties": { "osm_id": "251417990", "name": "Greater Canaan Church of God in Christ", "addr:housenumber": "2001", "addr:street": "Spring Garden Street", "addr:postcode": null, "amenity": "place_of_worship" }, "geometry": { "type": "Point", "coordinates": [ -75.171106559035849, 39.963983362692787 ] } },
{ "type": "Feature", "properties": { "osm_id": "252221796", "name": "St. John Chrysostom Albanian Orthodox Church", "addr:housenumber": "237", "addr:street": "North 17th Street", "addr:postcode": "19103", "amenity": "place_of_worship" }, "geometry": { "type": "Point", "coordinates": [ -75.167096247845507, 39.957871727601045 ] } },
{ "type": "Feature", "properties": { "osm_id": "252221806", "name": "Living Word Community", "addr:housenumber": "142", "addr:street": "North 17th Street", "addr:postcode": "19103", "amenity": "place_of_worship" }, "geometry": { "type": "Point", "coordinates": [ -75.167940123426831, 39.956487350096864 ] } },
{ "type": "Feature", "properties": { "osm_id": "252221811", "name": "Cathedral of Saints Peter and Paul", "addr:housenumber": "1723", "addr:street": "Race Street", "addr:postcode": "19103", "amenity": "place_of_worship" }, "geometry": { "type": "Point", "coordinates": [ -75.168507180733613, 39.957427383655613 ] } },
{ "type": "Feature", "properties": { "osm_id": "252386454", "name": "Broad Street Ministry", "addr:housenumber": "315", "addr:street": "South Broad Street", "addr:postcode": null, "amenity": "place_of_worship" }, "geometry": { "type": "Point", "coordinates": [ -75.16450436825005, 39.946121278569045 ] } },
{ "type": "Feature", "properties": { "osm_id": "252387410", "name": "Arch Street Presbyterian Church", "addr:housenumber": "1724", "addr:street": "Arch Street", "addr:postcode": "19103", "amenity": "place_of_worship" }, "geometry": { "type": "Point", "coordinates": [ -75.169312929419547, 39.954863926438854 ] } },
{ "type": "Feature", "properties": { "osm_id": "254590871", "name": "Saint Paul's Church", "addr:housenumber": "8300", "addr:street": "Germantown Avenue", "addr:postcode": "19118", "amenity": "place_of_worship" }, "geometry": { "type": "Point", "coordinates": [ -75.204033010046444, 40.074193552421789 ] } },
{ "type": "Feature", "properties": { "osm_id": "261314256", "name": "Library Hall", "addr:housenumber": "105", "addr:street": "South 5th Street", "addr:postcode": "19106", "amenity": "library" }, "geometry": { "type": "Point", "coordinates": [ -75.148967911577955, 39.948427962173717 ] } },
{ "type": "Feature", "properties": { "osm_id": "263639215", "name": "Grace Baptist Church of Germantown", "addr:housenumber": null, "addr:street": "West Johnson Street", "addr:postcode": null, "amenity": "place_of_worship" }, "geometry": { "type": "Point", "coordinates": [ -75.183097229930681, 40.04568228176322 ] } },
{ "type": "Feature", "properties": { "osm_id": "264353553", "name": "University Lutheran Church", "addr:housenumber": "3637", "addr:street": "Chestnut Street", "addr:postcode": "19104", "amenity": "place_of_worship" }, "geometry": { "type": "Point", "coordinates": [ -75.196187931026344, 39.955218089883516 ] } },
{ "type": "Feature", "properties": { "osm_id": "264634353", "name": "St. Thomas Aquinas Catholic Church", "addr:housenumber": "1719", "addr:street": "Morris Street", "addr:postcode": "19145", "amenity": "place_of_worship" }, "geometry": { "type": "Point", "coordinates": [ -75.173891848888516, 39.930241572663526 ] } },
{ "type": "Feature", "properties": { "osm_id": "264901992", "name": "Old Pine Street Church", "addr:housenumber": "412", "addr:street": "Pine Street", "addr:postcode": "19106", "amenity": "place_of_worship" }, "geometry": { "type": "Point", "coordinates": [ -75.149382651330654, 39.943420200010486 ] } },
{ "type": "Feature", "properties": { "osm_id": "298693770", "name": "Church of Saint Andrew and Saint Monica", "addr:housenumber": "3600", "addr:street": "Baring Street", "addr:postcode": "19104", "amenity": "place_of_worship" }, "geometry": { "type": "Point", "coordinates": [ -75.194257775140557, 39.960757020184069 ] } },
{ "type": "Feature", "properties": { "osm_id": "298694561", "name": "Arch Street Friends Meetinghouse", "addr:housenumber": "320", "addr:street": "Arch Street", "addr:postcode": "19106", "amenity": "place_of_worship" }, "geometry": { "type": "Point", "coordinates": [ -75.146154778280419, 39.951886916975042 ] } },
{ "type": "Feature", "properties": { "osm_id": "298696309", "name": "St. Rita's Church", "addr:housenumber": "1156", "addr:street": "South Broad Street", "addr:postcode": null, "amenity": "place_of_worship" }, "geometry": { "type": "Point", "coordinates": [ -75.167625622912198, 39.936384183404904 ] } },
{ "type": "Feature", "properties": { "osm_id": "309294829", "name": "Arch Street United Methodist Church", "addr:housenumber": "55", "addr:street": "North Broad Street", "addr:postcode": "19107", "amenity": "place_of_worship" }, "geometry": { "type": "Point", "coordinates": [ -75.16288792118786, 39.954096061234864 ] } },
{ "type": "Feature", "properties": { "osm_id": "313281462", "name": "Philadelphia Pennsylvania Temple", "addr:housenumber": "1739", "addr:street": "Vine Street", "addr:postcode": "19103", "amenity": "place_of_worship" }, "geometry": { "type": "Point", "coordinates": [ -75.168223962272947, 39.959085748361794 ] } },
{ "type": "Feature", "properties": { "osm_id": "313282738", "name": "The Church of Jesus Christ of Latter-day Saints", "addr:housenumber": "3913", "addr:street": "Chestnut Street", "addr:postcode": "19104", "amenity": "place_of_worship" }, "geometry": { "type": "Point", "coordinates": [ -75.200488219586049, 39.955839042441482 ] } },
{ "type": "Feature", "properties": { "osm_id": "330138963", "name": "Saints Agatha and James Catholic Church", "addr:housenumber": "111", "addr:street": "South 38th Street", "addr:postcode": "19104", "amenity": "place_of_worship" }, "geometry": { "type": "Point", "coordinates": [ -75.198158468757654, 39.954796889741516 ] } },
{ "type": "Feature", "properties": { "osm_id": "332757057", "name": "Christ Church Philadelphia", "addr:housenumber": "22", "addr:street": "North 2nd Street", "addr:postcode": "19106", "amenity": "place_of_worship" }, "geometry": { "type": "Point", "coordinates": [ -75.143863596894406, 39.950730388600526 ] } },
{ "type": "Feature", "properties": { "osm_id": "332786666", "name": "Scott Memorial Library", "addr:housenumber": "1020", "addr:street": "Walnut Street", "addr:postcode": "19107", "amenity": "library" }, "geometry": { "type": "Point", "coordinates": [ -75.158217670570806, 39.948266503490565 ] } },
{ "type": "Feature", "properties": { "osm_id": "332974947", "name": "Saint Clement's Church", "addr:housenumber": "2013", "addr:street": "Appletree Street", "addr:postcode": "19103", "amenity": "place_of_worship" }, "geometry": { "type": "Point", "coordinates": [ -75.173188188036235, 39.956412641855614 ] } },
{ "type": "Feature", "properties": { "osm_id": "333316113", "name": "Wesley AMEZ Church", "addr:housenumber": "1500", "addr:street": "Lombard Street", "addr:postcode": null, "amenity": "place_of_worship" }, "geometry": { "type": "Point", "coordinates": [ -75.167216160503386, 39.944684080689449 ] } },
{ "type": "Feature", "properties": { "osm_id": "333714460", "name": "Liberti Church", "addr:housenumber": "123", "addr:street": "South 17th Street", "addr:postcode": "19102", "amenity": "place_of_worship" }, "geometry": { "type": "Point", "coordinates": [ -75.16862622823173, 39.95048699615208 ] } },
{ "type": "Feature", "properties": { "osm_id": "333714497", "name": "Lutheran Church of the Holy Communion", "addr:housenumber": "2110", "addr:street": "Chestnut Street", "addr:postcode": "19103", "amenity": "place_of_worship" }, "geometry": { "type": "Point", "coordinates": [ -75.176062030954967, 39.952065841223231 ] } },
{ "type": "Feature", "properties": { "osm_id": "333714511", "name": "Church of the Lord Jesus Christ of the Apostolic Faith", "addr:housenumber": "701", "addr:street": "South 22nd Street", "addr:postcode": "19146", "amenity": "place_of_worship" }, "geometry": { "type": "Point", "coordinates": [ -75.178341926817225, 39.944087645250647 ] } },
{ "type": "Feature", "properties": { "osm_id": "333776301", "name": "Athenaeum of Philadelphia", "addr:housenumber": "219", "addr:street": "South 6th Street", "addr:postcode": "19106", "amenity": "library" }, "geometry": { "type": "Point", "coordinates": [ -75.150977645632807, 39.946878812931104 ] } },
{ "type": "Feature", "properties": { "osm_id": "333776327", "name": "Annunciation BVM Church", "addr:housenumber": "1511", "addr:street": "South 10th Street", "addr:postcode": null, "amenity": "place_of_worship" }, "geometry": { "type": "Point", "coordinates": [ -75.160913685191588, 39.930567635615823 ] } },
{ "type": "Feature", "properties": { "osm_id": "333831453", "name": "Charles Santore Library", "addr:housenumber": "932", "addr:street": "South 7th Street", "addr:postcode": "19147", "amenity": "library" }, "geometry": { "type": "Point", "coordinates": [ -75.155260935848645, 39.93708900045084 ] } },
{ "type": "Feature", "properties": { "osm_id": "333831471", "name": "St. John the Evangelist Church", "addr:housenumber": "21", "addr:street": "South 13th Street", "addr:postcode": null, "amenity": "place_of_worship" }, "geometry": { "type": "Point", "coordinates": [ -75.161318354678357, 39.951217567311119 ] } },
{ "type": "Feature", "properties": { "osm_id": "334179780", "name": "Church of the Holy Trinity", "addr:housenumber": "1904", "addr:street": "Walnut Street", "addr:postcode": null, "amenity": "place_of_worship" }, "geometry": { "type": "Point", "coordinates": [ -75.173196871882467, 39.950275076217494 ] } },
{ "type": "Feature", "properties": { "osm_id": "334438130", "name": "St. Patrick Church", "addr:housenumber": "242", "addr:street": "South 20th Street", "addr:postcode": null, "amenity": "place_of_worship" }, "geometry": { "type": "Point", "coordinates": [ -75.174581653433378, 39.949006965095435 ] } },
{ "type": "Feature", "properties": { "osm_id": "334438155", "name": "Marian Anderson Community Center", "addr:housenumber": null, "addr:street": null, "addr:postcode": null, "amenity": "community_centre" }, "geometry": { "type": "Point", "coordinates": [ -75.171173360029584, 39.941821173341204 ] } },
{ "type": "Feature", "properties": { "osm_id": "334598360", "name": "St. Mark's Church", "addr:housenumber": "1625", "addr:street": "Locust Street", "addr:postcode": "19103", "amenity": "place_of_worship" }, "geometry": { "type": "Point", "coordinates": [ -75.168397134949828, 39.948946935363885 ] } },
{ "type": "Feature", "properties": { "osm_id": "334598370", "name": "Tenth Presbyterian Church", "addr:housenumber": "1701", "addr:street": "Delancey Street", "addr:postcode": null, "amenity": "place_of_worship" }, "geometry": { "type": "Point", "coordinates": [ -75.169941040944522, 39.947283082788204 ] } },
{ "type": "Feature", "properties": { "osm_id": "334598371", "name": "Temple Beth Zion-Beth Israel", "addr:housenumber": "300", "addr:street": "South 18th Street", "addr:postcode": null, "amenity": "place_of_worship" }, "geometry": { "type": "Point", "coordinates": [ -75.171444652250472, 39.947556694443868 ] } },
{ "type": "Feature", "properties": { "osm_id": "334903479", "name": "Bryant Baptist Church", "addr:housenumber": "1144", "addr:street": "South 19th Street", "addr:postcode": "19146", "amenity": "place_of_worship" }, "geometry": { "type": "Point", "coordinates": [ -75.17526549243145, 39.93739473925509 ] } },
{ "type": "Feature", "properties": { "osm_id": "335369096", "name": "St. George Greek Orthodox Cathedral", "addr:housenumber": "256", "addr:street": "South 8th Street", "addr:postcode": null, "amenity": "place_of_worship" }, "geometry": { "type": "Point", "coordinates": [ -75.155100396219993, 39.94638848114208 ] } },
{ "type": "Feature", "properties": { "osm_id": "335512391", "name": "St. Stephen's Episcopal Church", "addr:housenumber": "19", "addr:street": "South 10th Street", "addr:postcode": null, "amenity": "place_of_worship" }, "geometry": { "type": "Point", "coordinates": [ -75.156546901296153, 39.950849505819036 ] } },
{ "type": "Feature", "properties": { "osm_id": "335519747", "name": "Waters Memorial AME Church", "addr:housenumber": "609", "addr:street": "South Clifton Street", "addr:postcode": "19147", "amenity": "place_of_worship" }, "geometry": { "type": "Point", "coordinates": [ -75.159717456925904, 39.942639330896128 ] } },
{ "type": "Feature", "properties": { "osm_id": "335703432", "name": "Old First Reformed United Church of Christ", "addr:housenumber": "151", "addr:street": "North 4th Street", "addr:postcode": "19106", "amenity": "place_of_worship" }, "geometry": { "type": "Point", "coordinates": [ -75.146041058930805, 39.953831575433291 ] } },
{ "type": "Feature", "properties": { "osm_id": "336695668", "name": "Chinese Gospel Church", "addr:housenumber": "222", "addr:street": "North 12th Street", "addr:postcode": "19107", "amenity": "place_of_worship" }, "geometry": { "type": "Point", "coordinates": [ -75.159142755958442, 39.956478333390343 ] } },
{ "type": "Feature", "properties": { "osm_id": "336748940", "name": "First Unitarian Church of Philadelphia", "addr:housenumber": "2125", "addr:street": "Chestnut Street", "addr:postcode": "19103", "amenity": "place_of_worship" }, "geometry": { "type": "Point", "coordinates": [ -75.176341920912293, 39.952726885283532 ] } },
{ "type": "Feature", "properties": { "osm_id": "336882532", "name": "Mount Zion Baptist Church", "addr:housenumber": "8101", "addr:street": "Erdrick Street", "addr:postcode": null, "amenity": "place_of_worship" }, "geometry": { "type": "Point", "coordinates": [ -75.024379329433287, 40.040988729214604 ] } },
{ "type": "Feature", "properties": { "osm_id": "337127101", "name": "McVeigh Community Center", "addr:housenumber": "400", "addr:street": "East Ontario Street", "addr:postcode": null, "amenity": "community_centre" }, "geometry": { "type": "Point", "coordinates": [ -75.121082329525152, 40.00030212257569 ] } },
{ "type": "Feature", "properties": { "osm_id": "337127115", "name": "Cardinal Bevilacqua Community Center", "addr:housenumber": "2646", "addr:street": "Kensington Avenue", "addr:postcode": "19125", "amenity": "community_centre" }, "geometry": { "type": "Point", "coordinates": [ -75.126201280065317, 39.989749350636473 ] } },
{ "type": "Feature", "properties": { "osm_id": "337127116", "name": "Visitation B.V.M. Church", "addr:housenumber": "2546", "addr:street": "Kensington Avenue", "addr:postcode": "19125", "amenity": "place_of_worship" }, "geometry": { "type": "Point", "coordinates": [ -75.126915764963925, 39.989894401134322 ] } },
{ "type": "Feature", "properties": { "osm_id": "337127118", "name": "Union Temple Baptist Church", "addr:housenumber": "2610", "addr:street": "Howard Street", "addr:postcode": "19134", "amenity": "place_of_worship" }, "geometry": { "type": "Point", "coordinates": [ -75.132459941330694, 39.989735116552872 ] } },
{ "type": "Feature", "properties": { "osm_id": "337289240", "name": "Greater Exodus Baptist Church", "addr:housenumber": "714", "addr:street": "North Broad Street", "addr:postcode": null, "amenity": "place_of_worship" }, "geometry": { "type": "Point", "coordinates": [ -75.160736834226213, 39.967470140625757 ] } },
{ "type": "Feature", "properties": { "osm_id": "337636320", "name": "Mt. Olive Holy Temple", "addr:housenumber": "1451", "addr:street": "North Broad Street", "addr:postcode": null, "amenity": "place_of_worship" }, "geometry": { "type": "Point", "coordinates": [ -75.158084841681799, 39.97561634764498 ] } },
{ "type": "Feature", "properties": { "osm_id": "337703595", "name": "Temple of Divine Love Church", "addr:housenumber": "1518", "addr:street": "West Girard Avenue", "addr:postcode": "19130", "amenity": "place_of_worship" }, "geometry": { "type": "Point", "coordinates": [ -75.161997512872091, 39.971480614041766 ] } },
{ "type": "Feature", "properties": { "osm_id": "337703601", "name": "John F. Street Community Center", "addr:housenumber": "1100", "addr:street": "Poplar Street", "addr:postcode": null, "amenity": "community_centre" }, "geometry": { "type": "Point", "coordinates": [ -75.155386431019636, 39.968838186984087 ] } },
{ "type": "Feature", "properties": { "osm_id": "337703605", "name": "Church of the Gesú", "addr:housenumber": null, "addr:street": "North 18th Street", "addr:postcode": "19130", "amenity": "place_of_worship" }, "geometry": { "type": "Point", "coordinates": [ -75.165184068167889, 39.973585649092627 ] } },
{ "type": "Feature", "properties": { "osm_id": "337703672", "name": "United House of Prayer", "addr:housenumber": "1200", "addr:street": "Poplar Street", "addr:postcode": null, "amenity": "place_of_worship" }, "geometry": { "type": "Point", "coordinates": [ -75.156343608386436, 39.969104346169154 ] } },
{ "type": "Feature", "properties": { "osm_id": "337844682", "name": "Grace Evangelical Lutheran Church", "addr:housenumber": "3529", "addr:street": "Haverford Avenue", "addr:postcode": "19132", "amenity": "place_of_worship" }, "geometry": { "type": "Point", "coordinates": [ -75.194268695621531, 39.963932687952664 ] } },
{ "type": "Feature", "properties": { "osm_id": "337844698", "name": "Immaculate Conception Roman Catholic Church", "addr:housenumber": "1032", "addr:street": "North Front Street", "addr:postcode": null, "amenity": "place_of_worship" }, "geometry": { "type": "Point", "coordinates": [ -75.13740493856055, 39.965977264656701 ] } },
{ "type": "Feature", "properties": { "osm_id": "337844920", "name": "West Side Church of God", "addr:housenumber": "3914", "addr:street": "Lancaster Avenue", "addr:postcode": null, "amenity": "place_of_worship" }, "geometry": { "type": "Point", "coordinates": [ -75.201118008344665, 39.962148893463514 ] } },
{ "type": "Feature", "properties": { "osm_id": "338216569", "name": "Old St. Joseph's Church", "addr:housenumber": "321", "addr:street": "Willings Alley", "addr:postcode": "19106", "amenity": "place_of_worship" }, "geometry": { "type": "Point", "coordinates": [ -75.14754914276314, 39.946828383957332 ] } },
{ "type": "Feature", "properties": { "osm_id": "338426346", "name": "St. Augustine Church", "addr:housenumber": null, "addr:street": null, "addr:postcode": null, "amenity": "place_of_worship" }, "geometry": { "type": "Point", "coordinates": [ -75.146510789153965, 39.955540254187376 ] } },
{ "type": "Feature", "properties": { "osm_id": "338920264", "name": "Historic Congregation B'nai Abraham Synagogue", "addr:housenumber": "527", "addr:street": "Lombard Street", "addr:postcode": null, "amenity": "place_of_worship" }, "geometry": { "type": "Point", "coordinates": [ -75.151323552418617, 39.943194729864992 ] } },
{ "type": "Feature", "properties": { "osm_id": "338920265", "name": "Mother Bethel African Methodist Episcopal Church", "addr:housenumber": "419", "addr:street": "South 6th Street", "addr:postcode": "19147", "amenity": "place_of_worship" }, "geometry": { "type": "Point", "coordinates": [ -75.151760156996417, 39.94332245435286 ] } },
{ "type": "Feature", "properties": { "osm_id": "340038791", "name": "Tindley Temple United Methodist Church", "addr:housenumber": "750", "addr:street": "South Broad Street", "addr:postcode": "19146", "amenity": "place_of_worship" }, "geometry": { "type": "Point", "coordinates": [ -75.166417455835642, 39.941431029929163 ] } },
{ "type": "Feature", "properties": { "osm_id": "344140606", "name": "First Church of Christ Scientist", "addr:housenumber": "1915", "addr:street": "Pine Street", "addr:postcode": null, "amenity": "place_of_worship" }, "geometry": { "type": "Point", "coordinates": [ -75.173803306168921, 39.946810590953476 ] } },
{ "type": "Feature", "properties": { "osm_id": "345044246", "name": "Saint Maron Maronite Catholic Church", "addr:housenumber": "1134", "addr:street": "South 10th Street", "addr:postcode": null, "amenity": "place_of_worship" }, "geometry": { "type": "Point", "coordinates": [ -75.160516879206597, 39.935846026923414 ] } },
{ "type": "Feature", "properties": { "osm_id": "345057790", "name": "Emmanuel Chapel", "addr:housenumber": "835", "addr:street": "Reed Street", "addr:postcode": null, "amenity": "place_of_worship" }, "geometry": { "type": "Point", "coordinates": [ -75.158952715774447, 39.931953732348056 ] } },
{ "type": "Feature", "properties": { "osm_id": "345137090", "name": "Penn-Drexel Newman Center", "addr:housenumber": "111", "addr:street": "South 38th Street", "addr:postcode": "19104", "amenity": "community_centre" }, "geometry": { "type": "Point", "coordinates": [ -75.197965333158223, 39.954466300655433 ] } },
{ "type": "Feature", "properties": { "osm_id": "345137121", "name": "Saint Frances Cabrini Church", "addr:housenumber": "401", "addr:street": "North 65th Street", "addr:postcode": null, "amenity": "place_of_worship" }, "geometry": { "type": "Point", "coordinates": [ -75.249118516421746, 39.969469595918945 ] } },
{ "type": "Feature", "properties": { "osm_id": "345145157", "name": "Prayer and Faith Temple", "addr:housenumber": "1541", "addr:street": "North 61st Street", "addr:postcode": null, "amenity": "place_of_worship" }, "geometry": { "type": "Point", "coordinates": [ -75.241343089152764, 39.975283771178439 ] } },
{ "type": "Feature", "properties": { "osm_id": "346374968", "name": "Circle of Hope", "addr:housenumber": "1125", "addr:street": "South Broad Street", "addr:postcode": "19147", "amenity": "place_of_worship" }, "geometry": { "type": "Point", "coordinates": [ -75.166531480436419, 39.937043589364329 ] } },
{ "type": "Feature", "properties": { "osm_id": "348815379", "name": "Cathedral of the Immaculate Conception Ukrainian Catholic Church", "addr:housenumber": "830", "addr:street": "North Franklin Street", "addr:postcode": "19123", "amenity": "place_of_worship" }, "geometry": { "type": "Point", "coordinates": [ -75.150409746020159, 39.966360604976629 ] } },
{ "type": "Feature", "properties": { "osm_id": "348815381", "name": "Saint Nicholas Russian Orthodox Church", "addr:housenumber": "817", "addr:street": "North 7th Street", "addr:postcode": "19123", "amenity": "place_of_worship" }, "geometry": { "type": "Point", "coordinates": [ -75.148818959179067, 39.965329084612456 ] } },
{ "type": "Feature", "properties": { "osm_id": "349279327", "name": "Christ Community Church", "addr:housenumber": "4017", "addr:street": "Chestnut Street", "addr:postcode": "19104", "amenity": "place_of_worship" }, "geometry": { "type": "Point", "coordinates": [ -75.203204263260659, 39.956081611471035 ] } },
{ "type": "Feature", "properties": { "osm_id": "350146077", "name": "Mt. Pleasant Primitive Baptist Church", "addr:housenumber": "435", "addr:street": "North 38th Street", "addr:postcode": null, "amenity": "place_of_worship" }, "geometry": { "type": "Point", "coordinates": [ -75.196860832844123, 39.961991663227224 ] } },
{ "type": "Feature", "properties": { "osm_id": "350146078", "name": "Tyree AME Church", "addr:housenumber": "3800", "addr:street": "Hamilton Street", "addr:postcode": null, "amenity": "place_of_worship" }, "geometry": { "type": "Point", "coordinates": [ -75.197219670747828, 39.961299995212876 ] } },
{ "type": "Feature", "properties": { "osm_id": "351408286", "name": "St. Barnabas Bethsaida United Methodist Church", "addr:housenumber": "1814", "addr:street": "Wharton Street", "addr:postcode": "19146", "amenity": "place_of_worship" }, "geometry": { "type": "Point", "coordinates": [ -75.174499407417002, 39.934850517716058 ] } },
{ "type": "Feature", "properties": { "osm_id": "351408287", "name": "Friendship Baptist Church", "addr:housenumber": "1728", "addr:street": "Wharton Street", "addr:postcode": null, "amenity": "place_of_worship" }, "geometry": { "type": "Point", "coordinates": [ -75.173811651147687, 39.934761382043348 ] } },
{ "type": "Feature", "properties": { "osm_id": "351408288", "name": "Second Nazareth Missionary Church", "addr:housenumber": "1800", "addr:street": "Tasker Street", "addr:postcode": null, "amenity": "place_of_worship" }, "geometry": { "type": "Point", "coordinates": [ -75.175025190946087, 39.931114900818145 ] } },
{ "type": "Feature", "properties": { "osm_id": "351503604", "name": "Second Pilgrim Baptist Church", "addr:housenumber": "854", "addr:street": "North 15th Street", "addr:postcode": "19130", "amenity": "place_of_worship" }, "geometry": { "type": "Point", "coordinates": [ -75.161810549341226, 39.969998009318815 ] } },
{ "type": "Feature", "properties": { "osm_id": "352074286", "name": "Russell Tabernade CME", "addr:housenumber": "516", "addr:street": "Wharton Street", "addr:postcode": null, "amenity": "place_of_worship" }, "geometry": { "type": "Point", "coordinates": [ -75.153677735851645, 39.932146397967642 ] } },
{ "type": "Feature", "properties": { "osm_id": "352074298", "name": "Sacred Heart of Jesus Church", "addr:housenumber": "1404", "addr:street": "South 3rd Street", "addr:postcode": "19147", "amenity": "place_of_worship" }, "geometry": { "type": "Point", "coordinates": [ -75.150386495884177, 39.930246859199826 ] } },
{ "type": "Feature", "properties": { "osm_id": "352074300", "name": "St Casimir's Lithuanian Catholic Church", "addr:housenumber": "324", "addr:street": "Wharton Street", "addr:postcode": "19147", "amenity": "place_of_worship" }, "geometry": { "type": "Point", "coordinates": [ -75.150779690819974, 39.93168746911627 ] } },
{ "type": "Feature", "properties": { "osm_id": "352074324", "name": "Solid Rock Baptist Church", "addr:housenumber": "1836", "addr:street": "Federal Street", "addr:postcode": null, "amenity": "place_of_worship" }, "geometry": { "type": "Point", "coordinates": [ -75.174787623183448, 39.936787658521716 ] } },
{ "type": "Feature", "properties": { "osm_id": "368075084", "name": "Epic Church", "addr:housenumber": "6035", "addr:street": "Ridge Avenue", "addr:postcode": null, "amenity": "place_of_worship" }, "geometry": { "type": "Point", "coordinates": [ -75.21363849786708, 40.032822372642961 ] } },
{ "type": "Feature", "properties": { "osm_id": "374114621", "name": "St. John Cantius Church", "addr:housenumber": "4415", "addr:street": "Almond Street", "addr:postcode": "19137", "amenity": "place_of_worship" }, "geometry": { "type": "Point", "coordinates": [ -75.074646036876189, 39.999874283396665 ] } },
{ "type": "Feature", "properties": { "osm_id": "376480720", "name": "Masjidullah", "addr:housenumber": "7401", "addr:street": "Limekiln Pike", "addr:postcode": "19138", "amenity": "place_of_worship" }, "geometry": { "type": "Point", "coordinates": [ -75.158375503194094, 40.067562336971065 ] } },
{ "type": "Feature", "properties": { "osm_id": "376728506", "name": "Germantown Jewish Center", "addr:housenumber": "400", "addr:street": "West Ellet Street", "addr:postcode": "19119", "amenity": "place_of_worship" }, "geometry": { "type": "Point", "coordinates": [ -75.194926519789618, 40.050291501624507 ] } },
{ "type": "Feature", "properties": { "osm_id": "381500469", "name": "Andorra Baptist Church", "addr:housenumber": "8711", "addr:street": "Ridge Avenue", "addr:postcode": "19128", "amenity": "place_of_worship" }, "geometry": { "type": "Point", "coordinates": [ -75.239519393320535, 40.06642928452488 ] } },
{ "type": "Feature", "properties": { "osm_id": "381500470", "name": "St. Gregory Armenian Apostolic Church", "addr:housenumber": "8701", "addr:street": "Ridge Avenue", "addr:postcode": "19128", "amenity": "place_of_worship" }, "geometry": { "type": "Point", "coordinates": [ -75.238274602874185, 40.066371356892233 ] } },
{ "type": "Feature", "properties": { "osm_id": "381574966", "name": "Congregations of Ner Zedek", "addr:housenumber": "7520", "addr:street": "Bustleton Avenue", "addr:postcode": "19152", "amenity": "place_of_worship" }, "geometry": { "type": "Point", "coordinates": [ -75.05695853813387, 40.051951878099665 ] } },
{ "type": "Feature", "properties": { "osm_id": "381580151", "name": "Northeast Regional Library", "addr:housenumber": "2228", "addr:street": "Cottman Avenue", "addr:postcode": "19149", "amenity": "library" }, "geometry": { "type": "Point", "coordinates": [ -75.0614931740716, 40.048150467669167 ] } },
{ "type": "Feature", "properties": { "osm_id": "383124011", "name": "Rhawnhurst Presbyterian Church", "addr:housenumber": "7701", "addr:street": "Loretto Avenue", "addr:postcode": "19111", "amenity": "place_of_worship" }, "geometry": { "type": "Point", "coordinates": [ -75.061944564569473, 40.057879764310563 ] } },
{ "type": "Feature", "properties": { "osm_id": "383124012", "name": "First Church of the Nazarene", "addr:housenumber": "1707", "addr:street": "Shelmire Avenue", "addr:postcode": "19111", "amenity": "place_of_worship" }, "geometry": { "type": "Point", "coordinates": [ -75.066830526172566, 40.057985137289052 ] } },
{ "type": "Feature", "properties": { "osm_id": "383124013", "name": "Philadelphia Gospel Hall", "addr:housenumber": "7601", "addr:street": "Langdon Street", "addr:postcode": "19111", "amenity": "place_of_worship" }, "geometry": { "type": "Point", "coordinates": [ -75.067298227519814, 40.059118434816639 ] } },
{ "type": "Feature", "properties": { "osm_id": "383654833", "name": "Bushrod Library", "addr:housenumber": "6304", "addr:street": "Castor Avenue", "addr:postcode": "19149", "amenity": "library" }, "geometry": { "type": "Point", "coordinates": [ -75.078600810398797, 40.03864938666824 ] } },
{ "type": "Feature", "properties": { "osm_id": "389118103", "name": "Congregation Temple Beth-El", "addr:housenumber": "7350", "addr:street": "Lowber Avenue", "addr:postcode": "19138", "amenity": "place_of_worship" }, "geometry": { "type": "Point", "coordinates": [ -75.161077709975373, 40.062339535720184 ] } },
{ "type": "Feature", "properties": { "osm_id": "389130352", "name": "Enon Tabernacle Baptist Church", "addr:housenumber": "2800", "addr:street": "Cheltenham Avenue", "addr:postcode": "19150", "amenity": "place_of_worship" }, "geometry": { "type": "Point", "coordinates": [ -75.165130710497365, 40.077034354354403 ] } },
{ "type": "Feature", "properties": { "osm_id": "391307327", "name": "Cedar Park Presbyterian Church", "addr:housenumber": "7740", "addr:street": "Limekiln Pike", "addr:postcode": "19150", "amenity": "place_of_worship" }, "geometry": { "type": "Point", "coordinates": [ -75.161421658121952, 40.070882483481554 ] } },
{ "type": "Feature", "properties": { "osm_id": "397176035", "name": "Courage Christian Center", "addr:housenumber": "7584", "addr:street": "Haverford Avenue", "addr:postcode": "19151", "amenity": "place_of_worship" }, "geometry": { "type": "Point", "coordinates": [ -75.26861061740621, 39.979003290217236 ] } },
{ "type": "Feature", "properties": { "osm_id": "404131853", "name": "Covenant House of God", "addr:housenumber": "721", "addr:street": "North 5th Street", "addr:postcode": "19123", "amenity": "place_of_worship" }, "geometry": { "type": "Point", "coordinates": [ -75.146250211838492, 39.963893865658214 ] } },
{ "type": "Feature", "properties": { "osm_id": "404131854", "name": "St. Andrews Russian Orthodox Church", "addr:housenumber": "707", "addr:street": "North 5th Street", "addr:postcode": "19123", "amenity": "place_of_worship" }, "geometry": { "type": "Point", "coordinates": [ -75.146375642785245, 39.963511409833835 ] } },
{ "type": "Feature", "properties": { "osm_id": "404144744", "name": "Saint Timothy's Episcopal Church", "addr:housenumber": "5720", "addr:street": "Ridge Avenue", "addr:postcode": "19128", "amenity": "place_of_worship" }, "geometry": { "type": "Point", "coordinates": [ -75.210457140423117, 40.02760614711547 ] } },
{ "type": "Feature", "properties": { "osm_id": "404988078", "name": "Circle of Hope", "addr:housenumber": "2007", "addr:street": "Frankford Avenue", "addr:postcode": "19125", "amenity": "place_of_worship" }, "geometry": { "type": "Point", "coordinates": [ -75.129984914996697, 39.978689468277977 ] } },
{ "type": "Feature", "properties": { "osm_id": "410146330", "name": "True Vine Baptist Church", "addr:housenumber": "521", "addr:street": "West Lehigh Avenue", "addr:postcode": "19133", "amenity": "place_of_worship" }, "geometry": { "type": "Point", "coordinates": [ -75.141120799792219, 39.992523149632937 ] } },
{ "type": "Feature", "properties": { "osm_id": "438627281", "name": "Bethany Indonesian Church", "addr:housenumber": "1709", "addr:street": "South Broad Street", "addr:postcode": "19148", "amenity": "place_of_worship" }, "geometry": { "type": "Point", "coordinates": [ -75.168296836776491, 39.928869014451699 ] } },
{ "type": "Feature", "properties": { "osm_id": "439875653", "name": "Library Branch - South Philadelphia", "addr:housenumber": "1700", "addr:street": "South Broad Street", "addr:postcode": "19145", "amenity": "library" }, "geometry": { "type": "Point", "coordinates": [ -75.169328883247132, 39.929034472529857 ] } },
{ "type": "Feature", "properties": { "osm_id": "440187020", "name": "Yesha Ministries Worship Center", "addr:housenumber": "2301", "addr:street": "Snyder Avenue", "addr:postcode": null, "amenity": "place_of_worship" }, "geometry": { "type": "Point", "coordinates": [ -75.184517404602744, 39.926623585442904 ] } },
{ "type": "Feature", "properties": { "osm_id": "440193263", "name": "International Bethel Church", "addr:housenumber": "1619", "addr:street": "South Broad Street", "addr:postcode": null, "amenity": "place_of_worship" }, "geometry": { "type": "Point", "coordinates": [ -75.168088906186995, 39.929875688195111 ] } },
{ "type": "Feature", "properties": { "osm_id": "440217801", "name": "Lian Sheng True Buddha Temple", "addr:housenumber": "1539", "addr:street": "McKean Street", "addr:postcode": null, "amenity": "place_of_worship" }, "geometry": { "type": "Point", "coordinates": [ -75.172241722013638, 39.926127008197682 ] } },
{ "type": "Feature", "properties": { "osm_id": "441278088", "name": "St. Edmond Church", "addr:housenumber": "2130", "addr:street": "South 21st Street", "addr:postcode": null, "amenity": "place_of_worship" }, "geometry": { "type": "Point", "coordinates": [ -75.181527501921764, 39.925452597795939 ] } },
{ "type": "Feature", "properties": { "osm_id": "441499336", "name": "Philadelphia Praise Center", "addr:housenumber": "1701", "addr:street": "McKean Street", "addr:postcode": "19145", "amenity": "place_of_worship" }, "geometry": { "type": "Point", "coordinates": [ -75.174398116115199, 39.926388973340536 ] } },
{ "type": "Feature", "properties": { "osm_id": "443774833", "name": "East Passyunk Community Recreation Center", "addr:housenumber": "1025", "addr:street": "Mifflin Street", "addr:postcode": null, "amenity": "community_centre" }, "geometry": { "type": "Point", "coordinates": [ -75.163343320059397, 39.92656627243862 ] } },
{ "type": "Feature", "properties": { "osm_id": "443794193", "name": "Saint John's Baptist Church", "addr:housenumber": "1601", "addr:street": "South 13th Street", "addr:postcode": null, "amenity": "place_of_worship" }, "geometry": { "type": "Point", "coordinates": [ -75.166021632831445, 39.930033800029108 ] } },
{ "type": "Feature", "properties": { "osm_id": "452144665", "name": "Dare to Imagine Church", "addr:housenumber": "6610", "addr:street": "Anderson Street", "addr:postcode": null, "amenity": "place_of_worship" }, "geometry": { "type": "Point", "coordinates": [ -75.174729345198088, 40.059705884621849 ] } },
{ "type": "Feature", "properties": { "osm_id": "453828604", "name": "Thomas F. Donatucci, Sr. Library", "addr:housenumber": "1935", "addr:street": "West Shunk Street", "addr:postcode": "19145", "amenity": "library" }, "geometry": { "type": "Point", "coordinates": [ -75.180127526556348, 39.919620992342459 ] } },
{ "type": "Feature", "properties": { "osm_id": "454297587", "name": "Saint Monica Catholic Church", "addr:housenumber": "1700", "addr:street": "Ritner Street", "addr:postcode": null, "amenity": "place_of_worship" }, "geometry": { "type": "Point", "coordinates": [ -75.175699129501936, 39.921005319672517 ] } },
{ "type": "Feature", "properties": { "osm_id": "454318166", "name": "St. Richard's Catholic Church", "addr:housenumber": "3010", "addr:street": "South 18th Street", "addr:postcode": null, "amenity": "place_of_worship" }, "geometry": { "type": "Point", "coordinates": [ -75.178199631399494, 39.913472316408246 ] } },
{ "type": "Feature", "properties": { "osm_id": "454318247", "name": "Holy Spirit Catholic Church", "addr:housenumber": "1845", "addr:street": "Hartranft Street", "addr:postcode": null, "amenity": "place_of_worship" }, "geometry": { "type": "Point", "coordinates": [ -75.180219156224453, 39.909319357170787 ] } },
{ "type": "Feature", "properties": { "osm_id": "456378236", "name": "Chua Bo De Buddist Temple", "addr:housenumber": "1114", "addr:street": "South 13th Street", "addr:postcode": null, "amenity": "place_of_worship" }, "geometry": { "type": "Point", "coordinates": [ -75.16498714122713, 39.93711610492926 ] } },
{ "type": "Feature", "properties": { "osm_id": "456629162", "name": "St. Mary's Church", "addr:housenumber": "630", "addr:street": "East Cathedral Road", "addr:postcode": "19128", "amenity": "place_of_worship" }, "geometry": { "type": "Point", "coordinates": [ -75.241349246583596, 40.064562806937118 ] } },
{ "type": "Feature", "properties": { "osm_id": "456629164", "name": "Grace Epiphany Church", "addr:housenumber": "224", "addr:street": "East Gowen Avenue", "addr:postcode": "19119", "amenity": "place_of_worship" }, "geometry": { "type": "Point", "coordinates": [ -75.188760905600148, 40.065872914748276 ] } },
{ "type": "Feature", "properties": { "osm_id": "456791037", "name": "First Christian Assembly", "addr:housenumber": "1900", "addr:street": "South 11th Street", "addr:postcode": null, "amenity": "place_of_worship" }, "geometry": { "type": "Point", "coordinates": [ -75.164175840426822, 39.926033352712572 ] } },
{ "type": "Feature", "properties": { "osm_id": "456793147", "name": "Epipany of Our Lord Parish", "addr:housenumber": "1121", "addr:street": "Jackson Street", "addr:postcode": "19148", "amenity": "place_of_worship" }, "geometry": { "type": "Point", "coordinates": [ -75.165176680507926, 39.922777667696721 ] } },
{ "type": "Feature", "properties": { "osm_id": "457963750", "name": "Little David Baptist Church", "addr:housenumber": "2026", "addr:street": "South 6th Street", "addr:postcode": null, "amenity": "place_of_worship" }, "geometry": { "type": "Point", "coordinates": [ -75.156744777807631, 39.923111996601627 ] } },
{ "type": "Feature", "properties": { "osm_id": "460598114", "name": "Holy Ghost Byzantine Catholic Church", "addr:housenumber": "2310", "addr:street": "South 24th Street", "addr:postcode": "19145-3207", "amenity": "place_of_worship" }, "geometry": { "type": "Point", "coordinates": [ -75.187346815841693, 39.923913965903061 ] } },
{ "type": "Feature", "properties": { "osm_id": "461379045", "name": "Iglesia Adulam Pentecostal", "addr:housenumber": "2200", "addr:street": "Snyder Avenue", "addr:postcode": null, "amenity": "place_of_worship" }, "geometry": { "type": "Point", "coordinates": [ -75.183119049033465, 39.925890736637598 ] } },
{ "type": "Feature", "properties": { "osm_id": "462191206", "name": "Saint Simon the Cyrenian Church", "addr:housenumber": "1401", "addr:street": "South 22nd Street", "addr:postcode": null, "amenity": "place_of_worship" }, "geometry": { "type": "Point", "coordinates": [ -75.180646588065372, 39.934390824128421 ] } },
{ "type": "Feature", "properties": { "osm_id": "462327823", "name": "Twentienth Street Baptist Church", "addr:housenumber": "1211", "addr:street": "South 20th Street", "addr:postcode": null, "amenity": "place_of_worship" }, "geometry": { "type": "Point", "coordinates": [ -75.176581959889546, 39.936886245523489 ] } },
{ "type": "Feature", "properties": { "osm_id": "462341490", "name": "King David Baptist Church", "addr:housenumber": "1133", "addr:street": "South 20th Street", "addr:postcode": null, "amenity": "place_of_worship" }, "geometry": { "type": "Point", "coordinates": [ -75.176344770910532, 39.937920397260669 ] } },
{ "type": "Feature", "properties": { "osm_id": "462356283", "name": "Mt. Hebron Baptist Church", "addr:housenumber": "1409", "addr:street": "Wharton Street", "addr:postcode": null, "amenity": "place_of_worship" }, "geometry": { "type": "Point", "coordinates": [ -75.168581336430222, 39.934456931427867 ] } },
{ "type": "Feature", "properties": { "osm_id": "462773075", "name": "Household of Faith Apostolic Church", "addr:housenumber": "1217", "addr:street": "South 20th Street", "addr:postcode": null, "amenity": "place_of_worship" }, "geometry": { "type": "Point", "coordinates": [ -75.176617390350557, 39.936671837052153 ] } },
{ "type": "Feature", "properties": { "osm_id": "464724145", "name": "19th Street Baptist Church", "addr:housenumber": "1249", "addr:street": "South 19th Street", "addr:postcode": null, "amenity": "place_of_worship" }, "geometry": { "type": "Point", "coordinates": [ -75.175187862342042, 39.935465125084406 ] } },
{ "type": "Feature", "properties": { "osm_id": "472820489", "name": "First Presbyterian Church in Kensington", "addr:housenumber": "410", "addr:street": "East Girard Avenue", "addr:postcode": null, "amenity": "place_of_worship" }, "geometry": { "type": "Point", "coordinates": [ -75.129720606639637, 39.970119917487445 ] } },
{ "type": "Feature", "properties": { "osm_id": "484721083", "name": "Mt. Olivet Church", "addr:housenumber": "1638", "addr:street": "Reed Street", "addr:postcode": null, "amenity": "place_of_worship" }, "geometry": { "type": "Point", "coordinates": [ -75.172569020521834, 39.933400409413338 ] } },
{ "type": "Feature", "properties": { "osm_id": "486157643", "name": "Ridge Avenue United Methodist Church", "addr:housenumber": "7811", "addr:street": "Ridge Avenue", "addr:postcode": "19128", "amenity": "place_of_worship" }, "geometry": { "type": "Point", "coordinates": [ -75.235818203248527, 40.053110902749857 ] } },
{ "type": "Feature", "properties": { "osm_id": "486186461", "name": "Living Hope Church", "addr:housenumber": "7372", "addr:street": "Henry Avenue", "addr:postcode": "19128", "amenity": "place_of_worship" }, "geometry": { "type": "Point", "coordinates": [ -75.224863616927422, 40.050832082064623 ] } },
{ "type": "Feature", "properties": { "osm_id": "488326170", "name": "Faith Tabernacle Baptist Church", "addr:housenumber": "1728", "addr:street": "West Montgomery Avenue", "addr:postcode": null, "amenity": "place_of_worship" }, "geometry": { "type": "Point", "coordinates": [ -75.163438324574102, 39.980768920056306 ] } },
{ "type": "Feature", "properties": { "osm_id": "488515957", "name": "Zhen Ru Temple", "addr:housenumber": "703", "addr:street": "McKean Street", "addr:postcode": null, "amenity": "place_of_worship" }, "geometry": { "type": "Point", "coordinates": [ -75.158328346867975, 39.924303162543687 ] } },
{ "type": "Feature", "properties": { "osm_id": "490097270", "name": "Mt Moriah Temple Baptist Church", "addr:housenumber": "410", "addr:street": "Wharton Street", "addr:postcode": null, "amenity": "place_of_worship" }, "geometry": { "type": "Point", "coordinates": [ -75.151810859605035, 39.931910781426168 ] } },
{ "type": "Feature", "properties": { "osm_id": "492653188", "name": "Wissahickon Environmental Education Center", "addr:housenumber": "9001", "addr:street": "Lykens Lane", "addr:postcode": null, "amenity": "community_centre" }, "geometry": { "type": "Point", "coordinates": [ -75.233905837203878, 40.081193615280867 ] } },
{ "type": "Feature", "properties": { "osm_id": "524541528", "name": "Burholme Baptist Church", "addr:housenumber": "905", "addr:street": "Cottman Avenue", "addr:postcode": "19111", "amenity": "place_of_worship" }, "geometry": { "type": "Point", "coordinates": [ -75.084297104990654, 40.062018325930559 ] } },
{ "type": "Feature", "properties": { "osm_id": "527640275", "name": "Resurrection of Our Lord Church", "addr:housenumber": "2000", "addr:street": "Shelmire Avenue", "addr:postcode": "19152", "amenity": "place_of_worship" }, "geometry": { "type": "Point", "coordinates": [ -75.062980316846534, 40.053664863578788 ] } },
{ "type": "Feature", "properties": { "osm_id": "540551420", "name": "In The Light Ministries", "addr:housenumber": "191", "addr:street": "West Hunting Park Avenue", "addr:postcode": "19140", "amenity": "place_of_worship" }, "geometry": { "type": "Point", "coordinates": [ -75.129063479581802, 40.014690963192947 ] } },
{ "type": "Feature", "properties": { "osm_id": "543958921", "name": "Calvary Chapel of Philadelphia", "addr:housenumber": "13500", "addr:street": "Philmont Avenue", "addr:postcode": "19116", "amenity": "place_of_worship" }, "geometry": { "type": "Point", "coordinates": [ -75.017369192567102, 40.129717255932746 ] } },
{ "type": "Feature", "properties": { "osm_id": "545491517", "name": "The Scout House", "addr:housenumber": "726", "addr:street": "Wigard Avenue", "addr:postcode": "19128", "amenity": "community_centre" }, "geometry": { "type": "Point", "coordinates": [ -75.225412617718774, 40.053530619413607 ] } },
{ "type": "Feature", "properties": { "osm_id": "545707008", "name": "Deliverance Evangelistic Church", "addr:housenumber": "2001", "addr:street": "West Lehigh Avenue", "addr:postcode": "19132", "amenity": "place_of_worship" }, "geometry": { "type": "Point", "coordinates": [ -75.164769080865113, 39.996078612729583 ] } },
{ "type": "Feature", "properties": { "osm_id": "555873003", "name": "Saint William Roman Catholic Church", "addr:housenumber": "6200", "addr:street": "Rising Sun Avenue", "addr:postcode": "19111", "amenity": "place_of_worship" }, "geometry": { "type": "Point", "coordinates": [ -75.098056868218436, 40.047752526583352 ] } },
{ "type": "Feature", "properties": { "osm_id": "567070798", "name": "A.I.C. Islamic Center", "addr:housenumber": "4431", "addr:street": "Walnut Street", "addr:postcode": "19104", "amenity": "place_of_worship" }, "geometry": { "type": "Point", "coordinates": [ -75.211348874747628, 39.955473291953332 ] } },
{ "type": "Feature", "properties": { "osm_id": "568398300", "name": "Fox Chase Library", "addr:housenumber": "501", "addr:street": "Rhawn Street", "addr:postcode": "19111", "amenity": "library" }, "geometry": { "type": "Point", "coordinates": [ -75.081908894157991, 40.076720379222017 ] } },
{ "type": "Feature", "properties": { "osm_id": "570790611", "name": "Bustleton Library", "addr:housenumber": "10199", "addr:street": "Bustleton Avenue", "addr:postcode": "19116", "amenity": "library" }, "geometry": { "type": "Point", "coordinates": [ -75.02618841784475, 40.107777675994171 ] } },
{ "type": "Feature", "properties": { "osm_id": "574968768", "name": "Congregation Mikveh Israel", "addr:housenumber": "44", "addr:street": "North 4th Street", "addr:postcode": "19106", "amenity": "place_of_worship" }, "geometry": { "type": "Point", "coordinates": [ -75.14781727953104, 39.951305797615923 ] } },
{ "type": "Feature", "properties": { "osm_id": "576407798", "name": "Mt. Airy Baptist Church", "addr:housenumber": "2012", "addr:street": "69th Avenue", "addr:postcode": "19138", "amenity": "place_of_worship" }, "geometry": { "type": "Point", "coordinates": [ -75.151424445200249, 40.058860235066021 ] } },
{ "type": "Feature", "properties": { "osm_id": "577336188", "name": "The Christian Church in Philadelphia", "addr:housenumber": "8040", "addr:street": "Stenton Avenue", "addr:postcode": null, "amenity": "place_of_worship" }, "geometry": { "type": "Point", "coordinates": [ -75.19629169888232, 40.07682363416852 ] } },
{ "type": "Feature", "properties": { "osm_id": "577336979", "name": "Chestnut Hill Friends Meeting", "addr:housenumber": "20", "addr:street": "East Mermaid Lane", "addr:postcode": "19118", "amenity": "place_of_worship" }, "geometry": { "type": "Point", "coordinates": [ -75.195996107946527, 40.068410878887597 ] } },
{ "type": "Feature", "properties": { "osm_id": "577948269", "name": "Bethesda Presbyterian Church", "addr:housenumber": "808", "addr:street": "Red Lion Road", "addr:postcode": null, "amenity": "place_of_worship" }, "geometry": { "type": "Point", "coordinates": [ -75.032148358213448, 40.103881078616809 ] } },
{ "type": "Feature", "properties": { "osm_id": "580364236", "name": "New Generation Community Church", "addr:housenumber": "1024", "addr:street": "Cottman Avenue", "addr:postcode": null, "amenity": "place_of_worship" }, "geometry": { "type": "Point", "coordinates": [ -75.082663692737654, 40.060447204664086 ] } },
{ "type": "Feature", "properties": { "osm_id": "580364238", "name": "Immanuel Lutheran Church & School", "addr:housenumber": "1013", "addr:street": "Cottman Avenue", "addr:postcode": null, "amenity": "place_of_worship" }, "geometry": { "type": "Point", "coordinates": [ -75.082567633704485, 40.06108279859356 ] } },
{ "type": "Feature", "properties": { "osm_id": "580567317", "name": "Temple Judea", "addr:housenumber": "7110", "addr:street": "North Broad Street", "addr:postcode": null, "amenity": "place_of_worship" }, "geometry": { "type": "Point", "coordinates": [ -75.140159341762384, 40.061734834013023 ] } },
{ "type": "Feature", "properties": { "osm_id": "582400202", "name": "The Church of Jesus Christ of Latter-day Saints", "addr:housenumber": "2072", "addr:street": "Red Lion Road", "addr:postcode": null, "amenity": "place_of_worship" }, "geometry": { "type": "Point", "coordinates": [ -75.020368505324925, 40.098212910812315 ] } },
{ "type": "Feature", "properties": { "osm_id": "584342308", "name": "United Methodist Church of the Redeemer", "addr:housenumber": "1132", "addr:street": "Cottman Avenue", "addr:postcode": null, "amenity": "place_of_worship" }, "geometry": { "type": "Point", "coordinates": [ -75.081401799120698, 40.059654779872041 ] } },
{ "type": "Feature", "properties": { "osm_id": "584783623", "name": "Calvary Center for Culture and Community", "addr:housenumber": "801", "addr:street": "South 48th Street", "addr:postcode": "19143", "amenity": "place_of_worship" }, "geometry": { "type": "Point", "coordinates": [ -75.218536483509382, 39.948214203443712 ] } },
{ "type": "Feature", "properties": { "osm_id": "584793500", "name": "Summit Presbyterian Church", "addr:housenumber": "6757", "addr:street": "Greene Street", "addr:postcode": "19119", "amenity": "place_of_worship" }, "geometry": { "type": "Point", "coordinates": [ -75.194297149288573, 40.045857256836122 ] } },
{ "type": "Feature", "properties": { "osm_id": "588363924", "name": "Oak Lane Library", "addr:housenumber": "6614", "addr:street": "North 12th Street", "addr:postcode": "19126", "amenity": "library" }, "geometry": { "type": "Point", "coordinates": [ -75.137817994861791, 40.054605632856614 ] } },
{ "type": "Feature", "properties": { "osm_id": "595605633", "name": "First Presbyterian Church in Germantown", "addr:housenumber": "35", "addr:street": "West Chelten Avenue", "addr:postcode": "19144", "amenity": "place_of_worship" }, "geometry": { "type": "Point", "coordinates": [ -75.175770967163274, 40.035348889560588 ] } },
{ "type": "Feature", "properties": { "osm_id": "597468398", "name": "Pennepack Baptist Church", "addr:housenumber": "8732", "addr:street": "Krewstown Road", "addr:postcode": "19115", "amenity": "place_of_worship" }, "geometry": { "type": "Point", "coordinates": [ -75.051282079697273, 40.081289165709968 ] } },
{ "type": "Feature", "properties": { "osm_id": "601325283", "name": "Lillian Marrero Library", "addr:housenumber": "601", "addr:street": "West Lehigh Avenue", "addr:postcode": "19133", "amenity": "library" }, "geometry": { "type": "Point", "coordinates": [ -75.142474444374855, 39.992778312031881 ] } },
{ "type": "Feature", "properties": { "osm_id": "601865421", "name": "Iglesia de Dios Pentecostal - Jehová Nissi", "addr:housenumber": "3101", "addr:street": "North 2nd Street", "addr:postcode": "19133", "amenity": "place_of_worship" }, "geometry": { "type": "Point", "coordinates": [ -75.133197547078822, 39.997864863998835 ] } },
{ "type": "Feature", "properties": { "osm_id": "612410408", "name": "Society For Helping Church Inc", "addr:housenumber": "1323", "addr:street": "West Susquehanna Avenue", "addr:postcode": "19122", "amenity": "place_of_worship" }, "geometry": { "type": "Point", "coordinates": [ -75.155212725983645, 39.986376684979376 ] } },
{ "type": "Feature", "properties": { "osm_id": "619002669", "name": "St Luke's United Church-Christ", "addr:housenumber": "10151", "addr:street": "Bustleton Avenue", "addr:postcode": null, "amenity": "place_of_worship" }, "geometry": { "type": "Point", "coordinates": [ -75.02709647486617, 40.105337386918464 ] } },
{ "type": "Feature", "properties": { "osm_id": "620394859", "name": "KleinLife", "addr:housenumber": "10100", "addr:street": "Jamison Avenue", "addr:postcode": "19116", "amenity": "community_centre" }, "geometry": { "type": "Point", "coordinates": [ -75.020941213546763, 40.101781313855206 ] } },
{ "type": "Feature", "properties": { "osm_id": "629352555", "name": "Lawncrest Library", "addr:housenumber": "6098", "addr:street": "Rising Sun Avenue", "addr:postcode": "19111", "amenity": "library" }, "geometry": { "type": "Point", "coordinates": [ -75.100170427129484, 40.046141716901815 ] } },
{ "type": "Feature", "properties": { "osm_id": "636742495", "name": "Ascension Mar Thoma Church", "addr:housenumber": "10197", "addr:street": "Northeast Boulevard", "addr:postcode": null, "amenity": "place_of_worship" }, "geometry": { "type": "Point", "coordinates": [ -75.021869817137784, 40.104938653145318 ] } },
{ "type": "Feature", "properties": { "osm_id": "640942086", "name": "Holmesburg Library", "addr:housenumber": "7810", "addr:street": "Frankford Avenue", "addr:postcode": "19136", "amenity": "library" }, "geometry": { "type": "Point", "coordinates": [ -75.031783646217136, 40.04045881500145 ] } },
{ "type": "Feature", "properties": { "osm_id": "643120262", "name": "Congregation Ahavas Torah", "addr:housenumber": "1425", "addr:street": "Rhawn Street", "addr:postcode": null, "amenity": "place_of_worship" }, "geometry": { "type": "Point", "coordinates": [ -75.064856343754315, 40.068185582453239 ] } },
{ "type": "Feature", "properties": { "osm_id": "645877715", "name": "Portuguese Evangelical Church", "addr:housenumber": "7629", "addr:street": "Verree Road", "addr:postcode": "19111", "amenity": "place_of_worship" }, "geometry": { "type": "Point", "coordinates": [ -75.080936226462313, 40.06766378103773 ] } },
{ "type": "Feature", "properties": { "osm_id": "668307445", "name": "Kingdom Hall of Jehovah's Witnesses", "addr:housenumber": "7400", "addr:street": "Palmetto Street", "addr:postcode": null, "amenity": "place_of_worship" }, "geometry": { "type": "Point", "coordinates": [ -75.081665375686825, 40.062909969137706 ] } },
{ "type": "Feature", "properties": { "osm_id": "672743936", "name": "Kingsessing Library", "addr:housenumber": "1201", "addr:street": "South 51st Street", "addr:postcode": "19143", "amenity": "library" }, "geometry": { "type": "Point", "coordinates": [ -75.218178131656614, 39.94204193129157 ] } },
{ "type": "Feature", "properties": { "osm_id": "672744431", "name": "Christ Mission of the Apostolic Faith", "addr:housenumber": "1100", "addr:street": "Hartel Avenue", "addr:postcode": null, "amenity": "place_of_worship" }, "geometry": { "type": "Point", "coordinates": [ -75.076024583763655, 40.066677660092701 ] } },
{ "type": "Feature", "properties": { "osm_id": "673778944", "name": "Chùa Quan Âm", "addr:housenumber": "1235", "addr:street": "Ridge Avenue", "addr:postcode": "19123", "amenity": "place_of_worship" }, "geometry": { "type": "Point", "coordinates": [ -75.158351666073116, 39.963271380278499 ] } },
{ "type": "Feature", "properties": { "osm_id": "673779119", "name": "Chenrezig Tibetan Buddhist Center of Philadelphia", "addr:housenumber": "954", "addr:street": "North Marshall Street", "addr:postcode": "19123", "amenity": "place_of_worship" }, "geometry": { "type": "Point", "coordinates": [ -75.147902215130401, 39.968638834011628 ] } },
{ "type": "Feature", "properties": { "osm_id": "673781690", "name": "Albanian American Muslim Society", "addr:housenumber": "157", "addr:street": "West Girard Avenue", "addr:postcode": "19123", "amenity": "place_of_worship" }, "geometry": { "type": "Point", "coordinates": [ -75.138254743818621, 39.969510057669488 ] } },
{ "type": "Feature", "properties": { "osm_id": "673781910", "name": "Al-Aqsa Islamic Society", "addr:housenumber": "1501", "addr:street": "Germantown Avenue", "addr:postcode": "19122", "amenity": "place_of_worship" }, "geometry": { "type": "Point", "coordinates": [ -75.141364041460491, 39.973911651110043 ] } },
{ "type": "Feature", "properties": { "osm_id": "673782474", "name": "Makkah Masjid", "addr:housenumber": "1319", "addr:street": "West Susquehanna Avenue", "addr:postcode": "19122", "amenity": "place_of_worship" }, "geometry": { "type": "Point", "coordinates": [ -75.154716007448215, 39.986341203821745 ] } },
{ "type": "Feature", "properties": { "osm_id": "673782795", "name": "Nigerian Muslim Association of Philadelphia", "addr:housenumber": "2209", "addr:street": "North Front Street", "addr:postcode": "19133", "amenity": "place_of_worship" }, "geometry": { "type": "Point", "coordinates": [ -75.132140114341908, 39.98356033171919 ] } },
{ "type": "Feature", "properties": { "osm_id": "673786614", "name": "Bait-ul-Aafiyat Mosque", "addr:housenumber": "1215", "addr:street": "West Glenwood Avenue", "addr:postcode": "19133", "amenity": "place_of_worship" }, "geometry": { "type": "Point", "coordinates": [ -75.151466452417154, 39.998046077868544 ] } },
{ "type": "Feature", "properties": { "osm_id": "673938573", "name": "Ridge Avenue Islamic Center", "addr:housenumber": "3116", "addr:street": "Ridge Avenue", "addr:postcode": "19121", "amenity": "place_of_worship" }, "geometry": { "type": "Point", "coordinates": [ -75.184195214430417, 39.989495501416279 ] } },
{ "type": "Feature", "properties": { "osm_id": "673941114", "name": "Masjid Muqbil Bin Hadee", "addr:housenumber": "2735", "addr:street": "West Allegheny Avenue", "addr:postcode": "19132", "amenity": "place_of_worship" }, "geometry": { "type": "Point", "coordinates": [ -75.174870948903646, 40.004683404127711 ] } },
{ "type": "Feature", "properties": { "osm_id": "673941995", "name": "United Muslim Movement", "addr:housenumber": "810", "addr:street": "South 15th Street", "addr:postcode": "19146", "amenity": "place_of_worship" }, "geometry": { "type": "Point", "coordinates": [ -75.16807217868859, 39.940751873330342 ] } },
{ "type": "Feature", "properties": { "osm_id": "674121543", "name": "First Church of Love, Faith, & Deliverance", "addr:housenumber": "3101", "addr:street": "Ridge Avenue", "addr:postcode": "19121", "amenity": "place_of_worship" }, "geometry": { "type": "Point", "coordinates": [ -75.183791883518765, 39.989659666280311 ] } },
{ "type": "Feature", "properties": { "osm_id": "674121545", "name": "Cornerstone Baptist Church", "addr:housenumber": "2117", "addr:street": "North 33rd Street", "addr:postcode": "19121", "amenity": "place_of_worship" }, "geometry": { "type": "Point", "coordinates": [ -75.186426986844694, 39.989382941898775 ] } },
{ "type": "Feature", "properties": { "osm_id": "674160328", "name": "Prince of Peace", "addr:housenumber": "1844-1898", "addr:street": "North 32nd Street", "addr:postcode": "19121", "amenity": "place_of_worship" }, "geometry": { "type": "Point", "coordinates": [ -75.186604075771157, 39.985258221191351 ] } },
{ "type": "Feature", "properties": { "osm_id": "688925277", "name": "St. Andrew's Collegiate Chapel", "addr:housenumber": "4205", "addr:street": "Spruce Street", "addr:postcode": "19104", "amenity": "place_of_worship" }, "geometry": { "type": "Point", "coordinates": [ -75.207320455670086, 39.952659200581621 ] } },
{ "type": "Feature", "properties": { "osm_id": "699259625", "name": "Martin Luther King Older Adult Center", "addr:housenumber": "2101", "addr:street": "Cecil B Moore Avenue", "addr:postcode": null, "amenity": "community_centre" }, "geometry": { "type": "Point", "coordinates": [ -75.170365820191051, 39.980622196356393 ] } },
{ "type": "Feature", "properties": { "osm_id": "699261349", "name": "Hank Gathers YAC Building", "addr:housenumber": "2501", "addr:street": "Diamond Street", "addr:postcode": null, "amenity": "community_centre" }, "geometry": { "type": "Point", "coordinates": [ -75.174673656888189, 39.987278769812072 ] } },
{ "type": "Feature", "properties": { "osm_id": "705857006", "name": "Miller Memorial Baptist Church", "addr:housenumber": "1512", "addr:street": "North 22nd Street", "addr:postcode": null, "amenity": "place_of_worship" }, "geometry": { "type": "Point", "coordinates": [ -75.171772099912459, 39.978144768206015 ] } },
{ "type": "Feature", "properties": { "osm_id": "706570993", "name": "33", "addr:housenumber": "1400", "addr:street": "North Broad Street", "addr:postcode": null, "amenity": "community_centre" }, "geometry": { "type": "Point", "coordinates": [ -75.159225460040588, 39.975040550327989 ] } },
{ "type": "Feature", "properties": { "osm_id": "706728929", "name": "Drueding Center", "addr:housenumber": "1328", "addr:street": "North 4th Street", "addr:postcode": null, "amenity": "community_centre" }, "geometry": { "type": "Point", "coordinates": [ -75.143199919198011, 39.972017183454859 ] } },
{ "type": "Feature", "properties": { "osm_id": "706728932", "name": "St Agnes - St John Nepomucene", "addr:housenumber": "319", "addr:street": "Brown Street", "addr:postcode": "19123", "amenity": "place_of_worship" }, "geometry": { "type": "Point", "coordinates": [ -75.144151162631061, 39.96396552328396 ] } },
{ "type": "Feature", "properties": { "osm_id": "706728939", "name": "Saint Michael The Archangel Orthodox Church", "addr:housenumber": "335", "addr:street": "Fairmount Avenue", "addr:postcode": null, "amenity": "place_of_worship" }, "geometry": { "type": "Point", "coordinates": [ -75.144109532507599, 39.963012851026598 ] } },
{ "type": "Feature", "properties": { "osm_id": "708547491", "name": "Charles Library", "addr:housenumber": "1900", "addr:street": "North 13th Street", "addr:postcode": "19122", "amenity": "library" }, "geometry": { "type": "Point", "coordinates": [ -75.15535273476705, 39.982169612396739 ] } },
{ "type": "Feature", "properties": { "osm_id": "734405097", "name": "Community Church of God", "addr:housenumber": "801", "addr:street": "West Olney Avenue", "addr:postcode": null, "amenity": "place_of_worship" }, "geometry": { "type": "Point", "coordinates": [ -75.135205249440276, 40.038064305238187 ] } },
{ "type": "Feature", "properties": { "osm_id": "735034070", "name": "Mercury Parish", "addr:housenumber": "2715", "addr:street": "South 73rd Street", "addr:postcode": null, "amenity": "place_of_worship" }, "geometry": { "type": "Point", "coordinates": [ -75.23703339938983, 39.910885031974033 ] } },
{ "type": "Feature", "properties": { "osm_id": "738709453", "name": "Paschalville Library", "addr:housenumber": "6942", "addr:street": "Woodland Avenue", "addr:postcode": "19142", "amenity": "library" }, "geometry": { "type": "Point", "coordinates": [ -75.240930134268808, 39.920459067333127 ] } },
{ "type": "Feature", "properties": { "osm_id": "738709485", "name": "Saint James Kingsessing Episcopal Church", "addr:housenumber": "6838", "addr:street": "Woodland Avenue", "addr:postcode": "19142", "amenity": "place_of_worship" }, "geometry": { "type": "Point", "coordinates": [ -75.238950341128628, 39.921644180064618 ] } },
{ "type": "Feature", "properties": { "osm_id": "741693328", "name": "Korean United Church", "addr:housenumber": "1200", "addr:street": "West Cheltenham Avenue", "addr:postcode": null, "amenity": "place_of_worship" }, "geometry": { "type": "Point", "coordinates": [ -75.135706111653931, 40.060770587637712 ] } },
{ "type": "Feature", "properties": { "osm_id": "741693330", "name": "Korean World Mission Church", "addr:housenumber": "1148", "addr:street": "70th Avenue", "addr:postcode": null, "amenity": "place_of_worship" }, "geometry": { "type": "Point", "coordinates": [ -75.136477549490962, 40.058914229719583 ] } },
{ "type": "Feature", "properties": { "osm_id": "741694111", "name": "Refuge Evangelical Baptist Church", "addr:housenumber": "1100", "addr:street": "Oak Lane", "addr:postcode": null, "amenity": "place_of_worship" }, "geometry": { "type": "Point", "coordinates": [ -75.136617950493687, 40.054653526227163 ] } },
{ "type": "Feature", "properties": { "osm_id": "741777722", "name": "The Cedar Works", "addr:housenumber": "4925", "addr:street": "Pentridge Street", "addr:postcode": null, "amenity": "community_centre" }, "geometry": { "type": "Point", "coordinates": [ -75.222033565000075, 39.94751642375703 ] } },
{ "type": "Feature", "properties": { "osm_id": "743531440", "name": "Southwest Police Athletic League", "addr:housenumber": "5900", "addr:street": "Elmwood Avenue", "addr:postcode": null, "amenity": "community_centre" }, "geometry": { "type": "Point", "coordinates": [ -75.222431349564786, 39.927421066609973 ] } },
{ "type": "Feature", "properties": { "osm_id": "744137097", "name": "Haddington Library", "addr:housenumber": "446", "addr:street": "North 65th Street", "addr:postcode": "19151", "amenity": "library" }, "geometry": { "type": "Point", "coordinates": [ -75.249636290314399, 39.970632740251034 ] } },
{ "type": "Feature", "properties": { "osm_id": "744187335", "name": "Simons Youth Access and Teen Center Ice Rink", "addr:housenumber": "1601", "addr:street": "East Walnut Lane", "addr:postcode": null, "amenity": "community_centre" }, "geometry": { "type": "Point", "coordinates": [ -75.157257520064348, 40.061785866880498 ] } },
{ "type": "Feature", "properties": { "osm_id": "750217305", "name": "Catalyst for Change Church", "addr:housenumber": "3727", "addr:street": "Baring Street", "addr:postcode": null, "amenity": "place_of_worship" }, "geometry": { "type": "Point", "coordinates": [ -75.196741819338058, 39.961063255404802 ] } },
{ "type": "Feature", "properties": { "osm_id": "750988130", "name": "New Saint John Baptist Church", "addr:housenumber": "726", "addr:street": "North 23rd Street", "addr:postcode": null, "amenity": "place_of_worship" }, "geometry": { "type": "Point", "coordinates": [ -75.175373969363562, 39.968416616291783 ] } },
{ "type": "Feature", "properties": { "osm_id": "762538940", "name": "E R Tustin Community Center", "addr:housenumber": "5901", "addr:street": "West Columbia Avenue", "addr:postcode": null, "amenity": "community_centre" }, "geometry": { "type": "Point", "coordinates": [ -75.240965042779749, 39.981789634963498 ] } },
{ "type": "Feature", "properties": { "osm_id": "762546969", "name": "Overbrook Park Library", "addr:housenumber": "7422", "addr:street": "Haverford Avenue", "addr:postcode": "19151", "amenity": "library" }, "geometry": { "type": "Point", "coordinates": [ -75.264027493385427, 39.976028887605146 ] } },
{ "type": "Feature", "properties": { "osm_id": "762552952", "name": "Wynnefield Library", "addr:housenumber": "5325", "addr:street": "Overbrook Avenue", "addr:postcode": "19131", "amenity": "library" }, "geometry": { "type": "Point", "coordinates": [ -75.233253323434198, 39.995208839214065 ] } },
{ "type": "Feature", "properties": { "osm_id": "765051006", "name": "St. Dominic Church", "addr:housenumber": "8500", "addr:street": "Frankford Avenue", "addr:postcode": null, "amenity": "place_of_worship" }, "geometry": { "type": "Point", "coordinates": [ -75.016969851731503, 40.045868974933477 ] } },
{ "type": "Feature", "properties": { "osm_id": "767655856", "name": "North Light Community Center", "addr:housenumber": "179", "addr:street": "Green Lane", "addr:postcode": null, "amenity": "community_centre" }, "geometry": { "type": "Point", "coordinates": [ -75.224248301561857, 40.028701551449188 ] } },
{ "type": "Feature", "properties": { "osm_id": "767834213", "name": "Mt Tabor Ame Church", "addr:housenumber": "961", "addr:street": "North 7th Street", "addr:postcode": "19123", "amenity": "place_of_worship" }, "geometry": { "type": "Point", "coordinates": [ -75.148146663982502, 39.969047986829786 ] } },
{ "type": "Feature", "properties": { "osm_id": "770773879", "name": "Lovett Memorial Library", "addr:housenumber": "6945", "addr:street": "Germantown Avenue", "addr:postcode": "19119", "amenity": "library" }, "geometry": { "type": "Point", "coordinates": [ -75.187603932472598, 40.056799635826351 ] } },
{ "type": "Feature", "properties": { "osm_id": "770982120", "name": "Wadsworth Library", "addr:housenumber": "1500", "addr:street": "Wadsworth Avenue", "addr:postcode": "19150", "amenity": "library" }, "geometry": { "type": "Point", "coordinates": [ -75.173715163676846, 40.078967562733723 ] } },
{ "type": "Feature", "properties": { "osm_id": "772553896", "name": "West Oak Lane Library", "addr:housenumber": "2000", "addr:street": "East Washington Lane", "addr:postcode": "19138", "amenity": "library" }, "geometry": { "type": "Point", "coordinates": [ -75.157689914778132, 40.067157054026964 ] } },
{ "type": "Feature", "properties": { "osm_id": "773612228", "name": "Ramonita Negron Rivera Community Center", "addr:housenumber": "3201", "addr:street": "North 5th Street", "addr:postcode": null, "amenity": "community_centre" }, "geometry": { "type": "Point", "coordinates": [ -75.137951253886129, 40.000441485407173 ] } },
{ "type": "Feature", "properties": { "osm_id": "773663131", "name": "Center in the Park", "addr:housenumber": "5710", "addr:street": "Germantown Avenue", "addr:postcode": null, "amenity": "community_centre" }, "geometry": { "type": "Point", "coordinates": [ -75.17647121126015, 40.036600295949199 ] } },
{ "type": "Feature", "properties": { "osm_id": "775346600", "name": "Germantown Church of the Brethren", "addr:housenumber": "6613", "addr:street": "Germantown Avenue", "addr:postcode": null, "amenity": "place_of_worship" }, "geometry": { "type": "Point", "coordinates": [ -75.183841785222185, 40.050077656711508 ] } },
{ "type": "Feature", "properties": { "osm_id": "779952567", "name": "Holy Cross Baptist Church", "addr:housenumber": "1900", "addr:street": "North 63rd Street", "addr:postcode": null, "amenity": "place_of_worship" }, "geometry": { "type": "Point", "coordinates": [ -75.247640732982262, 39.983635013841742 ] } },
{ "type": "Feature", "properties": { "osm_id": "779952568", "name": "Our Lady of Lourdes Church", "addr:housenumber": "6315", "addr:street": "Lancaster Avenue", "addr:postcode": "19151", "amenity": "place_of_worship" }, "geometry": { "type": "Point", "coordinates": [ -75.248115564806497, 39.985870586524705 ] } },
{ "type": "Feature", "properties": { "osm_id": "779952569", "name": "Oasis of Praise Ministries Church", "addr:housenumber": "2031", "addr:street": "North 63rd Street", "addr:postcode": null, "amenity": "place_of_worship" }, "geometry": { "type": "Point", "coordinates": [ -75.247485227088092, 39.986422641725937 ] } },
{ "type": "Feature", "properties": { "osm_id": "785504475", "name": "Emmanuel Church in Philadelphia", "addr:housenumber": "4723", "addr:street": "Spruce Street", "addr:postcode": "19139", "amenity": "place_of_worship" }, "geometry": { "type": "Point", "coordinates": [ -75.217435157119937, 39.953910464306091 ] } },
{ "type": "Feature", "properties": { "osm_id": "789742746", "name": "Stephen Klein Center YMCA", "addr:housenumber": "2108", "addr:street": "Cecil B Moore Avenue", "addr:postcode": null, "amenity": "community_centre" }, "geometry": { "type": "Point", "coordinates": [ -75.17040246839602, 39.980064241703083 ] } },
{ "type": "Feature", "properties": { "osm_id": "789743799", "name": "Library Branch - Cecil B. Moore", "addr:housenumber": "2320", "addr:street": "Cecil B Moore Avenue", "addr:postcode": "19121", "amenity": "library" }, "geometry": { "type": "Point", "coordinates": [ -75.1735389802177, 39.980489895858895 ] } },
{ "type": "Feature", "properties": { "osm_id": "791158281", "name": "8 Diamonds Community Building", "addr:housenumber": "1902", "addr:street": "North Woodstock Street", "addr:postcode": null, "amenity": "community_centre" }, "geometry": { "type": "Point", "coordinates": [ -75.167687151506556, 39.984134362258708 ] } },
{ "type": "Feature", "properties": { "osm_id": "792352900", "name": "St. Martha's Church", "addr:housenumber": "11301", "addr:street": "Academy Road", "addr:postcode": null, "amenity": "place_of_worship" }, "geometry": { "type": "Point", "coordinates": [ -74.985272780308449, 40.087839671279241 ] } },
{ "type": "Feature", "properties": { "osm_id": "803407038", "name": "Widener Library", "addr:housenumber": "2808", "addr:street": "West Lehigh Avenue", "addr:postcode": "19132", "amenity": "library" }, "geometry": { "type": "Point", "coordinates": [ -75.177588989457703, 39.996712867418637 ] } },
{ "type": "Feature", "properties": { "osm_id": "803483213", "name": "Kensington Library", "addr:housenumber": "104", "addr:street": "West Dauphin Street", "addr:postcode": "19133", "amenity": "library" }, "geometry": { "type": "Point", "coordinates": [ -75.132665389353193, 39.984641597773134 ] } },
{ "type": "Feature", "properties": { "osm_id": "819566158", "name": "Epiphany Fellowship Church", "addr:housenumber": "1632", "addr:street": "Diamond Street", "addr:postcode": "19121", "amenity": "place_of_worship" }, "geometry": { "type": "Point", "coordinates": [ -75.161233043308115, 39.985103276471634 ] } },
{ "type": "Feature", "properties": { "osm_id": "821394864", "name": "The Evangelical Lutheran Church of the Atonement", "addr:housenumber": "1538", "addr:street": "East Montgomery Avenue", "addr:postcode": "19125", "amenity": "place_of_worship" }, "geometry": { "type": "Point", "coordinates": [ -75.131001279528945, 39.976225986383916 ] } },
{ "type": "Feature", "properties": { "osm_id": "844373975", "name": "New Generation Church of Christ", "addr:housenumber": "1423", "addr:street": "North Bouvier Street", "addr:postcode": "19121", "amenity": "place_of_worship" }, "geometry": { "type": "Point", "coordinates": [ -75.163997622270486, 39.976038525036195 ] } },
{ "type": "Feature", "properties": { "osm_id": "871032988", "name": "Chapel of Divine Love", "addr:housenumber": "2212", "addr:street": "Green Street", "addr:postcode": "19130", "amenity": "place_of_worship" }, "geometry": { "type": "Point", "coordinates": [ -75.174489970846508, 39.965079903585355 ] } },
{ "type": "Feature", "properties": { "osm_id": "876443276", "name": "St. Anne's Church", "addr:housenumber": "2332", "addr:street": "East Lehigh Avenue", "addr:postcode": null, "amenity": "place_of_worship" }, "geometry": { "type": "Point", "coordinates": [ -75.118754830865953, 39.982348592396356 ] } },
{ "type": "Feature", "properties": { "osm_id": "882048708", "name": "Saint Francis de Sales Church", "addr:housenumber": "4625", "addr:street": "Springfield Avenue", "addr:postcode": "19143", "amenity": "place_of_worship" }, "geometry": { "type": "Point", "coordinates": [ -75.215221880991052, 39.94741137819436 ] } },
{ "type": "Feature", "properties": { "osm_id": "887540491", "name": "University City Chinese Christian Church", "addr:housenumber": "4501", "addr:street": "Walnut Street", "addr:postcode": "19139", "amenity": "place_of_worship" }, "geometry": { "type": "Point", "coordinates": [ -75.211917983516045, 39.955507158921272 ] } },
{ "type": "Feature", "properties": { "osm_id": "930387740", "name": "Mt. Zion Methodist Church", "addr:housenumber": "1530", "addr:street": "North 11th Street", "addr:postcode": null, "amenity": "place_of_worship" }, "geometry": { "type": "Point", "coordinates": [ -75.153336926732393, 39.976025422162067 ] } },
{ "type": "Feature", "properties": { "osm_id": "963501779", "name": "Fishtown Community Library", "addr:housenumber": "1217", "addr:street": "East Montgomery Avenue", "addr:postcode": "19125", "amenity": "library" }, "geometry": { "type": "Point", "coordinates": [ -75.127159677387098, 39.9719453451224 ] } },
{ "type": "Feature", "properties": { "osm_id": "963502130", "name": "Kensington Methodist Episcopal Church", "addr:housenumber": "300", "addr:street": "Richmond Street", "addr:postcode": null, "amenity": "place_of_worship" }, "geometry": { "type": "Point", "coordinates": [ -75.130265178961139, 39.967422974846293 ] } },
{ "type": "Feature", "properties": { "osm_id": "963558006", "name": "Urban Worship Center", "addr:housenumber": "2038", "addr:street": "East Cumberland Street", "addr:postcode": null, "amenity": "place_of_worship" }, "geometry": { "type": "Point", "coordinates": [ -75.127358353852387, 39.984619307122088 ] } },
{ "type": "Feature", "properties": { "osm_id": "963716996", "name": "Summerfield-Siloam United Methodist Church", "addr:housenumber": "2215", "addr:street": "East Dauphin Street", "addr:postcode": null, "amenity": "place_of_worship" }, "geometry": { "type": "Point", "coordinates": [ -75.127345106218698, 39.979488482834213 ] } },
{ "type": "Feature", "properties": { "osm_id": "963718621", "name": "Holy Name of Jesus Catholic Church", "addr:housenumber": null, "addr:street": null, "addr:postcode": null, "amenity": "place_of_worship" }, "geometry": { "type": "Point", "coordinates": [ -75.127716852069398, 39.975869034545845 ] } },
{ "type": "Feature", "properties": { "osm_id": "963784103", "name": "New Kingdom Baptist Church", "addr:housenumber": "2445", "addr:street": "Mascher Street", "addr:postcode": null, "amenity": "place_of_worship" }, "geometry": { "type": "Point", "coordinates": [ -75.133427926907842, 39.987756242039453 ] } },
{ "type": "Feature", "properties": { "osm_id": "963988869", "name": "Evangelismos of Theotokos Greek Orthodox Church", "addr:housenumber": "6501", "addr:street": "Bustleton Avenue", "addr:postcode": null, "amenity": "place_of_worship" }, "geometry": { "type": "Point", "coordinates": [ -75.068747026777615, 40.036868565548623 ] } },
{ "type": "Feature", "properties": { "osm_id": "971597757", "name": "Taller Puertoriqueño", "addr:housenumber": "2600", "addr:street": "North 5th Street", "addr:postcode": null, "amenity": "community_centre" }, "geometry": { "type": "Point", "coordinates": [ -75.140784866782568, 39.99095824921951 ] } },
{ "type": "Feature", "properties": { "osm_id": "972068093", "name": "Bethel Evangelistic Church", "addr:housenumber": "1647", "addr:street": "North 3rd Street", "addr:postcode": "19122", "amenity": "place_of_worship" }, "geometry": { "type": "Point", "coordinates": [ -75.140507590670154, 39.976290617352674 ] } },
{ "type": "Feature", "properties": { "osm_id": "972633673", "name": "Jones Tabernacle A.M.E.", "addr:housenumber": "2019", "addr:street": "Diamond Street", "addr:postcode": null, "amenity": "place_of_worship" }, "geometry": { "type": "Point", "coordinates": [ -75.167055959130536, 39.986329719490485 ] } },
{ "type": "Feature", "properties": { "osm_id": "972661386", "name": "Church of the Advocate", "addr:housenumber": "1801", "addr:street": "Diamond Street", "addr:postcode": null, "amenity": "place_of_worship" }, "geometry": { "type": "Point", "coordinates": [ -75.163277204231775, 39.986027623778767 ] } },
{ "type": "Feature", "properties": { "osm_id": "972952976", "name": "New Salem Baptist Church", "addr:housenumber": "1721", "addr:street": "North Croskey Street", "addr:postcode": "19121", "amenity": "place_of_worship" }, "geometry": { "type": "Point", "coordinates": [ -75.171370522084658, 39.981071449686205 ] } },
{ "type": "Feature", "properties": { "osm_id": "972952977", "name": "Immanuel Institutional Baptist Church", "addr:housenumber": "1732", "addr:street": "North 22nd Street", "addr:postcode": null, "amenity": "place_of_worship" }, "geometry": { "type": "Point", "coordinates": [ -75.17103913482697, 39.981289361198954 ] } },
{ "type": "Feature", "properties": { "osm_id": "972958920", "name": "Macedonia Free Will Baptist Church", "addr:housenumber": "2036", "addr:street": "Cecil B Moore Avenue", "addr:postcode": null, "amenity": "place_of_worship" }, "geometry": { "type": "Point", "coordinates": [ -75.16906534603892, 39.979922712965568 ] } },
{ "type": "Feature", "properties": { "osm_id": "972969379", "name": "New Mt. Zion", "addr:housenumber": "1501", "addr:street": "North 20th Street", "addr:postcode": "19121", "amenity": "place_of_worship" }, "geometry": { "type": "Point", "coordinates": [ -75.167719214821346, 39.977206743992014 ] } },
{ "type": "Feature", "properties": { "osm_id": "973098479", "name": "Church of the Living God", "addr:housenumber": "1632", "addr:street": "Poplar Street", "addr:postcode": null, "amenity": "place_of_worship" }, "geometry": { "type": "Point", "coordinates": [ -75.164409742975053, 39.970585309222038 ] } },
{ "type": "Feature", "properties": { "osm_id": "973188274", "name": "Masjid Al-Hidayah", "addr:housenumber": "223", "addr:street": "East Luzerne Street", "addr:postcode": null, "amenity": "place_of_worship" }, "geometry": { "type": "Point", "coordinates": [ -75.123801796930167, 40.011226369160191 ] } },
{ "type": "Feature", "properties": { "osm_id": "973477247", "name": "Gerater Harvest Baptist Church", "addr:housenumber": "1409", "addr:street": "Master Street", "addr:postcode": "19121", "amenity": "place_of_worship" }, "geometry": { "type": "Point", "coordinates": [ -75.159537683388621, 39.974754126642686 ] } },
{ "type": "Feature", "properties": { "osm_id": "973477339", "name": "North Philadelphia SDA Church", "addr:housenumber": "1533", "addr:street": "North 16th Street", "addr:postcode": null, "amenity": "place_of_worship" }, "geometry": { "type": "Point", "coordinates": [ -75.161132034802591, 39.977500173664957 ] } },
{ "type": "Feature", "properties": { "osm_id": "974612497", "name": "St Phillip's Baptist Church", "addr:housenumber": "1220", "addr:street": "North 6th Street", "addr:postcode": null, "amenity": "place_of_worship" }, "geometry": { "type": "Point", "coordinates": [ -75.146695681708849, 39.971206051697941 ] } },
{ "type": "Feature", "properties": { "osm_id": "974698692", "name": "Hancock Street Church", "addr:housenumber": "1217", "addr:street": "North Hancock Street", "addr:postcode": null, "amenity": "place_of_worship" }, "geometry": { "type": "Point", "coordinates": [ -75.138132333439913, 39.969930697172956 ] } },
{ "type": "Feature", "properties": { "osm_id": "974824966", "name": "Saint Michael Church", "addr:housenumber": "1445", "addr:street": "North 2nd Street", "addr:postcode": null, "amenity": "place_of_worship" }, "geometry": { "type": "Point", "coordinates": [ -75.138410886045989, 39.973306327244323 ] } },
{ "type": "Feature", "properties": { "osm_id": "975313389", "name": "Norris Square United Presbyterian Church", "addr:housenumber": "120", "addr:street": "West Susquehanna Avenue", "addr:postcode": null, "amenity": "place_of_worship" }, "geometry": { "type": "Point", "coordinates": [ -75.135757629702255, 39.983473684619028 ] } },
{ "type": "Feature", "properties": { "osm_id": "1023749526", "name": "Ramonita G. de Rodriguez Library", "addr:housenumber": "600", "addr:street": "West Girard Avenue", "addr:postcode": "19123", "amenity": "library" }, "geometry": { "type": "Point", "coordinates": [ -75.146865786329542, 39.970135176869057 ] } },
{ "type": "Feature", "properties": { "osm_id": "1029487264", "name": "Grace Episcopal Church", "addr:housenumber": "2645", "addr:street": "East Venango Street", "addr:postcode": "19134", "amenity": "place_of_worship" }, "geometry": { "type": "Point", "coordinates": [ -75.093014392017892, 39.989419346492774 ] } },
{ "type": "Feature", "properties": { "osm_id": "1046625957", "name": "First Presbyterian Church of Bridesburg", "addr:housenumber": "2790", "addr:street": "Pratt Street", "addr:postcode": null, "amenity": "place_of_worship" }, "geometry": { "type": "Point", "coordinates": [ -75.066106737074236, 40.002330122771539 ] } },
{ "type": "Feature", "properties": { "osm_id": "1046627229", "name": "Emanuel United Church of Christ of Bridesburg", "addr:housenumber": "4601", "addr:street": "Almond Street", "addr:postcode": null, "amenity": "place_of_worship" }, "geometry": { "type": "Point", "coordinates": [ -75.070453339237488, 40.002427129395755 ] } },
{ "type": "Feature", "properties": { "osm_id": "1047023853", "name": "Sturgis Community Center", "addr:housenumber": "200", "addr:street": "West 65th Avenue", "addr:postcode": null, "amenity": "community_centre" }, "geometry": { "type": "Point", "coordinates": [ -75.123605367734555, 40.049126913207267 ] } },
{ "type": "Feature", "properties": { "osm_id": "1056074224", "name": "Chestnut Hill Baptist Church", "addr:housenumber": "2", "addr:street": "Bethlehem Pike", "addr:postcode": null, "amenity": "place_of_worship" }, "geometry": { "type": "Point", "coordinates": [ -75.20785265131002, 40.077459145093449 ] } },
{ "type": "Feature", "properties": { "osm_id": "1056074664", "name": "Saint Paul's Episcopal Church", "addr:housenumber": "22", "addr:street": "East Chestnut Hill Avenue", "addr:postcode": null, "amenity": "place_of_worship" }, "geometry": { "type": "Point", "coordinates": [ -75.208629322581103, 40.079174634867428 ] } },
{ "type": "Feature", "properties": { "osm_id": "1056074672", "name": "Chestnut Hill Library", "addr:housenumber": "8711", "addr:street": "Germantown Avenue", "addr:postcode": "19118", "amenity": "library" }, "geometry": { "type": "Point", "coordinates": [ -75.209318043008366, 40.077856004636239 ] } },
{ "type": "Feature", "properties": { "osm_id": "1056074682", "name": "Our Mother of Consolation Church", "addr:housenumber": null, "addr:street": "East Chestnut Hill Avenue", "addr:postcode": null, "amenity": "place_of_worship" }, "geometry": { "type": "Point", "coordinates": [ -75.210315615595235, 40.078855488612128 ] } },
{ "type": "Feature", "properties": { "osm_id": "1056075169", "name": "Chestnut Hill United Church", "addr:housenumber": null, "addr:street": "Germantown Avenue", "addr:postcode": null, "amenity": "place_of_worship" }, "geometry": { "type": "Point", "coordinates": [ -75.211597182816575, 40.077989487981014 ] } },
{ "type": "Feature", "properties": { "osm_id": "1062674795", "name": "David Cohen Ogontz Library", "addr:housenumber": "6017", "addr:street": "Ogontz Avenue", "addr:postcode": "19141", "amenity": "library" }, "geometry": { "type": "Point", "coordinates": [ -75.150750442713402, 40.047114531576312 ] } },
{ "type": "Feature", "properties": { "osm_id": "1062725764", "name": "Second Mt. Zion Baptist Church", "addr:housenumber": "3814", "addr:street": "Parrish Street", "addr:postcode": null, "amenity": "place_of_worship" }, "geometry": { "type": "Point", "coordinates": [ -75.19921744578221, 39.968740608032554 ] } },
{ "type": "Feature", "properties": { "osm_id": "1086068706", "name": "First United Baptist Church", "addr:housenumber": "3728", "addr:street": "Haverford Avenue", "addr:postcode": null, "amenity": "place_of_worship" }, "geometry": { "type": "Point", "coordinates": [ -75.197079133661759, 39.963250445494971 ] } },
{ "type": "Feature", "properties": { "osm_id": "1086068716", "name": "Saint Jude Baptist Church", "addr:housenumber": "626-632", "addr:street": "North 38th Street", "addr:postcode": null, "amenity": "place_of_worship" }, "geometry": { "type": "Point", "coordinates": [ -75.197814167349279, 39.9644160496509 ] } },
{ "type": "Feature", "properties": { "osm_id": "1086068732", "name": "Metropolitian Baptist Church", "addr:housenumber": "3500", "addr:street": "Baring Street", "addr:postcode": null, "amenity": "place_of_worship" }, "geometry": { "type": "Point", "coordinates": [ -75.192964432747431, 39.960948851049523 ] } },
{ "type": "Feature", "properties": { "osm_id": "1098628256", "name": "Westminster Mayfair Presby Church", "addr:housenumber": "6301", "addr:street": "Brous Avenue", "addr:postcode": "19149", "amenity": "place_of_worship" }, "geometry": { "type": "Point", "coordinates": [ -75.063592642311349, 40.030662044903877 ] } },
{ "type": "Feature", "properties": { "osm_id": "1111930458", "name": "National Shrine of St. John Neumann", "addr:housenumber": "1001", "addr:street": "North 5th Street", "addr:postcode": null, "amenity": "place_of_worship" }, "geometry": { "type": "Point", "coordinates": [ -75.144686240004233, 39.969831180177721 ] } },
{ "type": "Feature", "properties": { "osm_id": "1119044928", "name": "North Providence Baptist Church", "addr:housenumber": "2909", "addr:street": "North 8th Street", "addr:postcode": "19132", "amenity": "place_of_worship" }, "geometry": { "type": "Point", "coordinates": [ -75.144165341879585, 39.99612212044223 ] } },
{ "type": "Feature", "properties": { "osm_id": "1121956927", "name": "Memorial Church of St. Luke", "addr:housenumber": "1930", "addr:street": "Welsh Road", "addr:postcode": null, "amenity": "place_of_worship" }, "geometry": { "type": "Point", "coordinates": [ -75.037416448071966, 40.080367009433814 ] } },
{ "type": "Feature", "properties": { "osm_id": "1121956990", "name": "SS Peter and Paul Albanian Orthodox Church", "addr:housenumber": "9230", "addr:street": "Old Bustleton Avenue", "addr:postcode": null, "amenity": "place_of_worship" }, "geometry": { "type": "Point", "coordinates": [ -75.039366417065978, 40.081256101390501 ] } },
{ "type": "Feature", "properties": { "osm_id": "1122148049", "name": "St. Mary Magdalen de Pazzi Church", "addr:housenumber": "710", "addr:street": "Montrose Street", "addr:postcode": null, "amenity": "place_of_worship" }, "geometry": { "type": "Point", "coordinates": [ -75.155740039579669, 39.937453472918882 ] } },
{ "type": "Feature", "properties": { "osm_id": "1122947767", "name": "St. Philip Neri Roman Catholic Church", "addr:housenumber": "228", "addr:street": "Queen Street", "addr:postcode": null, "amenity": "place_of_worship" }, "geometry": { "type": "Point", "coordinates": [ -75.147582436114959, 39.936872357401853 ] } },
{ "type": "Feature", "properties": { "osm_id": "1123979108", "name": "Mt. Enon Baptist Church", "addr:housenumber": "500", "addr:street": "Snyder Avenue", "addr:postcode": null, "amenity": "place_of_worship" }, "geometry": { "type": "Point", "coordinates": [ -75.155466242619397, 39.922286648504659 ] } },
{ "type": "Feature", "properties": { "osm_id": "1124232635", "name": "Snyder Ave Congregational Church", "addr:housenumber": "300", "addr:street": "Snyder Avenue", "addr:postcode": null, "amenity": "place_of_worship" }, "geometry": { "type": "Point", "coordinates": [ -75.151415976997114, 39.921841837390716 ] } },
{ "type": "Feature", "properties": { "osm_id": "1124324163", "name": "Torresdale Library", "addr:housenumber": "3079", "addr:street": "Holme Avenue", "addr:postcode": "19136", "amenity": "library" }, "geometry": { "type": "Point", "coordinates": [ -75.015819772683031, 40.056890556885925 ] } },
{ "type": "Feature", "properties": { "osm_id": "1127819199", "name": "New Gethsemane Baptist Church", "addr:housenumber": "1274", "addr:street": "South 23rd Street", "addr:postcode": null, "amenity": "place_of_worship" }, "geometry": { "type": "Point", "coordinates": [ -75.182440986152358, 39.936229089880122 ] } },
{ "type": "Feature", "properties": { "osm_id": "1129615709", "name": "Katherine Drexel Library", "addr:housenumber": "11099", "addr:street": "Knights Road", "addr:postcode": "19154", "amenity": "library" }, "geometry": { "type": "Point", "coordinates": [ -74.973478950513979, 40.083997749725057 ] } },
{ "type": "Feature", "properties": { "osm_id": "1130928686", "name": "St Gabriel's Catholic Church", "addr:housenumber": "2917", "addr:street": "Dickinson Street", "addr:postcode": null, "amenity": "place_of_worship" }, "geometry": { "type": "Point", "coordinates": [ -75.193009786118608, 39.935208779540716 ] } },
{ "type": "Feature", "properties": { "osm_id": "1131133154", "name": "Hope Presbyterian Church", "addr:housenumber": "1301", "addr:street": "South 33rd Street", "addr:postcode": null, "amenity": "place_of_worship" }, "geometry": { "type": "Point", "coordinates": [ -75.197488347242313, 39.937802760280462 ] } },
{ "type": "Feature", "properties": { "osm_id": "1132168169", "name": "St. Cyprian Roman Catholic Church", "addr:housenumber": "6213", "addr:street": "Cedar Avenue", "addr:postcode": null, "amenity": "place_of_worship" }, "geometry": { "type": "Point", "coordinates": [ -75.248285806457957, 39.953682418244881 ] } },
{ "type": "Feature", "properties": { "osm_id": "1134442749", "name": "Saint David's Episcopal Church", "addr:housenumber": "150", "addr:street": "Dupont Street", "addr:postcode": "19127", "amenity": "place_of_worship" }, "geometry": { "type": "Point", "coordinates": [ -75.227163154153885, 40.029183084412992 ] } },
{ "type": "Feature", "properties": { "osm_id": "1135282068", "name": "Saint Martin's Catholic Church", "addr:housenumber": "5450", "addr:street": "Roosevelt Boulevard", "addr:postcode": null, "amenity": "place_of_worship" }, "geometry": { "type": "Point", "coordinates": [ -75.086174324034815, 40.032291946497409 ] } },
{ "type": "Feature", "properties": { "osm_id": "1135573252", "name": "Trinity Lutheran Church", "addr:housenumber": "22", "addr:street": "West Penn Street", "addr:postcode": null, "amenity": "place_of_worship" }, "geometry": { "type": "Point", "coordinates": [ -75.169491546862815, 40.031654795723696 ] } },
{ "type": "Feature", "properties": { "osm_id": "1136542937", "name": "Lucien E. Blackwell West Philadelphia Regional Library", "addr:housenumber": "125", "addr:street": "South 52nd Street", "addr:postcode": "19139", "amenity": "library" }, "geometry": { "type": "Point", "coordinates": [ -75.225081777839009, 39.957422042095146 ] } },
{ "type": "Feature", "properties": { "osm_id": "1144361285", "name": "Holmeburg Baptist Church", "addr:housenumber": "7923", "addr:street": "Frankford Avenue", "addr:postcode": null, "amenity": "place_of_worship" }, "geometry": { "type": "Point", "coordinates": [ -75.028748519384592, 40.040755024806565 ] } },
{ "type": "Feature", "properties": { "osm_id": "1154308176", "name": "New Testament Church of God", "addr:housenumber": "2227", "addr:street": "Bryn Mawr Avenue", "addr:postcode": null, "amenity": "place_of_worship" }, "geometry": { "type": "Point", "coordinates": [ -75.226144479000908, 39.990816245611221 ] } },
{ "type": "Feature", "properties": { "osm_id": "1155930910", "name": "Philadelphia Baha'i Center", "addr:housenumber": "2462", "addr:street": "Bryn Mawr Avenue", "addr:postcode": null, "amenity": "place_of_worship" }, "geometry": { "type": "Point", "coordinates": [ -75.230800154249707, 39.99828007600496 ] } },
{ "type": "Feature", "properties": { "osm_id": "1157985014", "name": "The Presbyterian Church of Frankford", "addr:housenumber": "4315", "addr:street": "Frankford Avenue", "addr:postcode": null, "amenity": "place_of_worship" }, "geometry": { "type": "Point", "coordinates": [ -75.088189913495725, 40.01090201419705 ] } },
{ "type": "Feature", "properties": { "osm_id": "1157985016", "name": "St Joachim Roman Catholic Church", "addr:housenumber": "1501", "addr:street": "Church Street", "addr:postcode": null, "amenity": "place_of_worship" }, "geometry": { "type": "Point", "coordinates": [ -75.089817866953126, 40.011988918983072 ] } },
{ "type": "Feature", "properties": { "osm_id": "1157985018", "name": "Padre Pio Prayer Center", "addr:housenumber": "1501", "addr:street": "Church Street", "addr:postcode": null, "amenity": "place_of_worship" }, "geometry": { "type": "Point", "coordinates": [ -75.090217731327726, 40.012052710764479 ] } },
{ "type": "Feature", "properties": { "osm_id": "1162129586", "name": "St. Luke's-Bishop Hoffman Reformed Episcopal Church", "addr:housenumber": "6701", "addr:street": "Frankford Avenue", "addr:postcode": null, "amenity": "place_of_worship" }, "geometry": { "type": "Point", "coordinates": [ -75.052512063741034, 40.031443261251987 ] } },
{ "type": "Feature", "properties": { "osm_id": "1162137529", "name": "Samaria Iglesia Evangelica", "addr:housenumber": "6816", "addr:street": "Jackson Street", "addr:postcode": null, "amenity": "place_of_worship" }, "geometry": { "type": "Point", "coordinates": [ -75.045961351230332, 40.027857802251752 ] } },
{ "type": "Feature", "properties": { "osm_id": "1162274844", "name": "Tacony Library", "addr:housenumber": "6742", "addr:street": "Torresdale Avenue", "addr:postcode": "19135", "amenity": "library" }, "geometry": { "type": "Point", "coordinates": [ -75.045241000882811, 40.025389435346831 ] } },
{ "type": "Feature", "properties": { "osm_id": "1163972618", "name": "Tacony Baptist Church", "addr:housenumber": "6930", "addr:street": "Hegerman Street", "addr:postcode": null, "amenity": "place_of_worship" }, "geometry": { "type": "Point", "coordinates": [ -75.041436960351717, 40.025834602486988 ] } },
{ "type": "Feature", "properties": { "osm_id": "1176389915", "name": "Church of the Holy Family", "addr:housenumber": "240", "addr:street": "Hermitage Street", "addr:postcode": null, "amenity": "place_of_worship" }, "geometry": { "type": "Point", "coordinates": [ -75.228658368615271, 40.032911490476216 ] } },
{ "type": "Feature", "properties": { "osm_id": "1177262456", "name": "Church in the Yunk", "addr:housenumber": "197", "addr:street": "Green Lane", "addr:postcode": null, "amenity": "place_of_worship" }, "geometry": { "type": "Point", "coordinates": [ -75.223949563984235, 40.028870651996812 ] } },
{ "type": "Feature", "properties": { "osm_id": "1177264190", "name": "Saint Mary of the Assumption Catholic Church", "addr:housenumber": "176", "addr:street": "Conarroe Street", "addr:postcode": null, "amenity": "place_of_worship" }, "geometry": { "type": "Point", "coordinates": [ -75.223705348670705, 40.028022581812742 ] } },
{ "type": "Feature", "properties": { "osm_id": "1180513517", "name": "Church of Saint Alban", "addr:housenumber": "532", "addr:street": "Fairthorne Street", "addr:postcode": null, "amenity": "place_of_worship" }, "geometry": { "type": "Point", "coordinates": [ -75.224885730277023, 40.042380071728438 ] } },
{ "type": "Feature", "properties": { "osm_id": "1185715829", "name": "Roxborough Church", "addr:housenumber": "8230", "addr:street": "Ridge Avenue", "addr:postcode": null, "amenity": "place_of_worship" }, "geometry": { "type": "Point", "coordinates": [ -75.238429743545538, 40.058982980039971 ] } },
{ "type": "Feature", "properties": { "osm_id": "1185762516", "name": "Greater Saint Luke's Church", "addr:housenumber": "2124", "addr:street": "West Oxford Street", "addr:postcode": null, "amenity": "place_of_worship" }, "geometry": { "type": "Point", "coordinates": [ -75.170795047266196, 39.978740559215105 ] } },
{ "type": "Feature", "properties": { "osm_id": "1185762523", "name": "Haven Peniel Church", "addr:housenumber": "2301", "addr:street": "West Oxford Street", "addr:postcode": "19121", "amenity": "place_of_worship" }, "geometry": { "type": "Point", "coordinates": [ -75.172981298021767, 39.979458491828041 ] } },
{ "type": "Feature", "properties": { "osm_id": "1185762528", "name": "Morris Brown A.M.E. Church", "addr:housenumber": "1756", "addr:street": "North 25th Street", "addr:postcode": "19121", "amenity": "place_of_worship" }, "geometry": { "type": "Point", "coordinates": [ -75.175695415554245, 39.982389341946494 ] } },
{ "type": "Feature", "properties": { "osm_id": "1194854156", "name": "Iglesia Pentecostal Fuente de Vida", "addr:housenumber": "260", "addr:street": "East Cambria Street", "addr:postcode": "19134", "amenity": "place_of_worship" }, "geometry": { "type": "Point", "coordinates": [ -75.126522897466415, 39.993340863597503 ] } },
{ "type": "Feature", "properties": { "osm_id": "1195118123", "name": "Liberty Baptist Church", "addr:housenumber": "431", "addr:street": "East Indiana Avenue", "addr:postcode": "19134", "amenity": "place_of_worship" }, "geometry": { "type": "Point", "coordinates": [ -75.122994248215662, 39.994709779577256 ] } },
{ "type": "Feature", "properties": { "osm_id": "1195118185", "name": "New Testament Church Of Jesus Christ Eglise De Jesus Christ", "addr:housenumber": "3001", "addr:street": "C Street", "addr:postcode": "19134", "amenity": "place_of_worship" }, "geometry": { "type": "Point", "coordinates": [ -75.123646854767316, 39.994858972964302 ] } },
{ "type": "Feature", "properties": { "osm_id": "1195341541", "name": "Iglesia Pentecostal Fuente de Salvacion", "addr:housenumber": "2740", "addr:street": "C Street", "addr:postcode": "19134", "amenity": "place_of_worship" }, "geometry": { "type": "Point", "coordinates": [ -75.124703664184366, 39.991633769416332 ] } },
{ "type": "Feature", "properties": { "osm_id": "1195351830", "name": "El Shadai Bethel Iglesia", "addr:housenumber": "2901", "addr:street": "B Street", "addr:postcode": "19134", "amenity": "place_of_worship" }, "geometry": { "type": "Point", "coordinates": [ -75.125525309474256, 39.99358794817428 ] } },
{ "type": "Feature", "properties": { "osm_id": "1208805760", "name": "ISKCON Philadelphia Hare Krishna temple", "addr:housenumber": "51", "addr:street": "West Allens Lane", "addr:postcode": null, "amenity": "place_of_worship" }, "geometry": { "type": "Point", "coordinates": [ -75.193297640698702, 40.060609215311935 ] } },
{ "type": "Feature", "properties": { "osm_id": "1208907118", "name": "Mt Zion Church of Kensington", "addr:housenumber": "1827", "addr:street": "East Somerset Street", "addr:postcode": "19134", "amenity": "place_of_worship" }, "geometry": { "type": "Point", "coordinates": [ -75.121720843088582, 39.990849069595214 ] } },
{ "type": "Feature", "properties": { "osm_id": "1211026964", "name": "St. Adalbert Roman Catholic Church", "addr:housenumber": "2639", "addr:street": "East Allegheny Avenue", "addr:postcode": null, "amenity": "place_of_worship" }, "geometry": { "type": "Point", "coordinates": [ -75.10240546021322, 39.984838651588163 ] } },
{ "type": "Feature", "properties": { "osm_id": "1214663335", "name": "Philadelphia Episcopal Cathedral", "addr:housenumber": null, "addr:street": "South 38th Street", "addr:postcode": null, "amenity": "place_of_worship" }, "geometry": { "type": "Point", "coordinates": [ -75.197819642273956, 39.95567153691082 ] } },
{ "type": "Feature", "properties": { "osm_id": "1217189291", "name": "St. Michael's Lutheran Church", "addr:housenumber": "2139", "addr:street": "East Cumberland Street", "addr:postcode": null, "amenity": "place_of_worship" }, "geometry": { "type": "Point", "coordinates": [ -75.124592567839656, 39.982388470420574 ] } },
{ "type": "Feature", "properties": { "osm_id": "1222263061", "name": "Reformed Episcopal Church of the Atonement", "addr:housenumber": "203", "addr:street": "West Walnut Lane", "addr:postcode": null, "amenity": "place_of_worship" }, "geometry": { "type": "Point", "coordinates": [ -75.182359792812093, 40.037453475860055 ] } },
{ "type": "Feature", "properties": { "osm_id": "1222267599", "name": "Germantown Community Presbyterian Church", "addr:housenumber": "160", "addr:street": "West Tulpehocken Street", "addr:postcode": null, "amenity": "place_of_worship" }, "geometry": { "type": "Point", "coordinates": [ -75.183026810910491, 40.038520607462871 ] } },
{ "type": "Feature", "properties": { "osm_id": "1222953253", "name": "Zion Hill Church of God", "addr:housenumber": "529", "addr:street": "East Washington Lane", "addr:postcode": null, "amenity": "place_of_worship" }, "geometry": { "type": "Point", "coordinates": [ -75.174394254494558, 40.050243615810999 ] } },
{ "type": "Feature", "properties": { "osm_id": "1225015814", "name": "Iglesia Alcance Victoria", "addr:housenumber": "3048", "addr:street": "North Front Street", "addr:postcode": "19133", "amenity": "place_of_worship" }, "geometry": { "type": "Point", "coordinates": [ -75.129926686688933, 39.996825030436263 ] } },
{ "type": "Feature", "properties": { "osm_id": "1230424950", "name": "Sharon Baptist Church", "addr:housenumber": null, "addr:street": "Conshohocken Avenue", "addr:postcode": "19131", "amenity": "place_of_worship" }, "geometry": { "type": "Point", "coordinates": [ -75.21059780102371, 40.003588642753236 ] } },
{ "type": "Feature", "properties": { "osm_id": "1238391050", "name": "Church of the Living God Strawberry Mansion/Kensington", "addr:housenumber": "2738", "addr:street": "North 2nd Street", "addr:postcode": "19133", "amenity": "place_of_worship" }, "geometry": { "type": "Point", "coordinates": [ -75.134953696349442, 39.992476332260708 ] } },
{ "type": "Feature", "properties": { "osm_id": "1239897617", "name": "St Stephen's Baptist Church", "addr:housenumber": "3913", "addr:street": "North Broad Street", "addr:postcode": "19140", "amenity": "place_of_worship" }, "geometry": { "type": "Point", "coordinates": [ -75.150099687152519, 40.012877707362904 ] } },
{ "type": "Feature", "properties": { "osm_id": "1239906458", "name": "The Universal Church", "addr:housenumber": "3801", "addr:street": "North Broad Street", "addr:postcode": "19140", "amenity": "place_of_worship" }, "geometry": { "type": "Point", "coordinates": [ -75.150225606941348, 40.011045332577396 ] } },
{ "type": "Feature", "properties": { "osm_id": "1240843888", "name": "Incarnation of our Lord", "addr:housenumber": "401", "addr:street": "Lindley Avenue", "addr:postcode": null, "amenity": "place_of_worship" }, "geometry": { "type": "Point", "coordinates": [ -75.131525302371571, 40.02897955171494 ] } },
{ "type": "Feature", "properties": { "osm_id": "1241685427", "name": "Germantown Seventh Day Adventist Church", "addr:housenumber": "200", "addr:street": "East Cliveden Street", "addr:postcode": null, "amenity": "place_of_worship" }, "geometry": { "type": "Point", "coordinates": [ -75.179787386729387, 40.049484792280943 ] } },
{ "type": "Feature", "properties": { "osm_id": "1242261885", "name": "Way of the Cross Church-Christ", "addr:housenumber": "4647", "addr:street": "North Broad Street", "addr:postcode": "19140", "amenity": "place_of_worship" }, "geometry": { "type": "Point", "coordinates": [ -75.147412982402187, 40.024237898221038 ] } },
{ "type": "Feature", "properties": { "osm_id": "1242340748", "name": "Logan Library", "addr:housenumber": "1333", "addr:street": "Wagner Avenue", "addr:postcode": "19141", "amenity": "library" }, "geometry": { "type": "Point", "coordinates": [ -75.145352324395475, 40.031805310202337 ] } },
{ "type": "Feature", "properties": { "osm_id": "1243068881", "name": "Majestic Stones Baptist Church", "addr:housenumber": "800", "addr:street": "West Olney Avenue", "addr:postcode": "19120", "amenity": "place_of_worship" }, "geometry": { "type": "Point", "coordinates": [ -75.135777146024623, 40.036706533754007 ] } },
{ "type": "Feature", "properties": { "osm_id": "1243278846", "name": "St. Paul's Evangelical Lutheran Church", "addr:housenumber": "5900", "addr:street": "North 5th Street", "addr:postcode": null, "amenity": "place_of_worship" }, "geometry": { "type": "Point", "coordinates": [ -75.129833830285421, 40.041467477973889 ] } },
{ "type": "Feature", "properties": { "osm_id": "1244659776", "name": "Saint Vladimir Ukrainian Orthodox Cathedral", "addr:housenumber": "6740", "addr:street": "North 5th Street", "addr:postcode": null, "amenity": "place_of_worship" }, "geometry": { "type": "Point", "coordinates": [ -75.127059042932515, 40.054072860120854 ] } },
{ "type": "Feature", "properties": { "osm_id": "1252047624", "name": "Enon Tabernacle Baptist Church", "addr:housenumber": null, "addr:street": "West Coulter Street", "addr:postcode": null, "amenity": "place_of_worship" }, "geometry": { "type": "Point", "coordinates": [ -75.175117228788039, 40.028324936545836 ] } },
{ "type": "Feature", "properties": { "osm_id": "1252079743", "name": "Basilica Shrine of Our Lady of the Miraculous Medal", "addr:housenumber": "526", "addr:street": "East Chelten Avenue", "addr:postcode": null, "amenity": "place_of_worship" }, "geometry": { "type": "Point", "coordinates": [ -75.16727965080473, 40.042217091492667 ] } },
{ "type": "Feature", "properties": { "osm_id": "1253749688", "name": "Holy Trinity Romanian Orthodox Church", "addr:housenumber": "222", "addr:street": "Brown Street", "addr:postcode": null, "amenity": "place_of_worship" }, "geometry": { "type": "Point", "coordinates": [ -75.14227296062694, 39.962896695832661 ] } },
{ "type": "Feature", "properties": { "osm_id": "1258314592", "name": "Lombard Central Presbyterian Church", "addr:housenumber": "4201", "addr:street": "Powelton Avenue", "addr:postcode": "19104", "amenity": "place_of_worship" }, "geometry": { "type": "Point", "coordinates": [ -75.206719497747514, 39.959185092159245 ] } },
{ "type": "Feature", "properties": { "osm_id": "1261947617", "name": "Saint Philips Church", "addr:housenumber": "525", "addr:street": "North 53rd Street", "addr:postcode": null, "amenity": "place_of_worship" }, "geometry": { "type": "Point", "coordinates": [ -75.226297616241709, 39.96908749723503 ] } },
{ "type": "Feature", "properties": { "osm_id": "1262275443", "name": "Camphor Memorial United Methodist Church", "addr:housenumber": "5616", "addr:street": "Wyalusing Avenue", "addr:postcode": null, "amenity": "place_of_worship" }, "geometry": { "type": "Point", "coordinates": [ -75.232875085625437, 39.968428137696222 ] } },
{ "type": "Feature", "properties": { "osm_id": "1265267149", "name": "Calvin Church", "addr:housenumber": "5931", "addr:street": "Master Street", "addr:postcode": null, "amenity": "place_of_worship" }, "geometry": { "type": "Point", "coordinates": [ -75.239407231513965, 39.973124579686051 ] } },
{ "type": "Feature", "properties": { "osm_id": "1265333886", "name": "Simpson-Fletcher United Methodist Church", "addr:housenumber": "6037", "addr:street": "West Jefferson Street", "addr:postcode": null, "amenity": "place_of_worship" }, "geometry": { "type": "Point", "coordinates": [ -75.242111823668822, 39.978982639405729 ] } },
{ "type": "Feature", "properties": { "osm_id": "1265830476", "name": "Community Holiness Church", "addr:housenumber": "6222", "addr:street": "Lansdowne Avenue", "addr:postcode": null, "amenity": "place_of_worship" }, "geometry": { "type": "Point", "coordinates": [ -75.244362017018744, 39.975277858055328 ] } },
{ "type": "Feature", "properties": { "osm_id": "1265837729", "name": "Mount Hermon Baptist Church", "addr:housenumber": "6132-34", "addr:street": "West Jefferson Street", "addr:postcode": null, "amenity": "place_of_worship" }, "geometry": { "type": "Point", "coordinates": [ -75.243878062695501, 39.978280572784072 ] } },
{ "type": "Feature", "properties": { "osm_id": "1266243923", "name": "Freedom Christian Bible Fellowship Church", "addr:housenumber": "6100", "addr:street": "West Columbia Avenue", "addr:postcode": null, "amenity": "place_of_worship" }, "geometry": { "type": "Point", "coordinates": [ -75.24301652421029, 39.980716507950483 ] } },
{ "type": "Feature", "properties": { "osm_id": "1266244001", "name": "Fellowship Christian Church", "addr:housenumber": "6101", "addr:street": "West Oxford Street", "addr:postcode": null, "amenity": "place_of_worship" }, "geometry": { "type": "Point", "coordinates": [ -75.243114168522141, 39.980377961664111 ] } },
{ "type": "Feature", "properties": { "osm_id": "1271516584", "name": "Love Zion Baptist Church", "addr:housenumber": "2513", "addr:street": "North 23rd Street", "addr:postcode": null, "amenity": "place_of_worship" }, "geometry": { "type": "Point", "coordinates": [ -75.169464451540861, 39.993454852848082 ] } },
{ "type": "Feature", "properties": { "osm_id": "1272114402", "name": "Japanese Christian Church of Philadephia", "addr:housenumber": "6301", "addr:street": "Drexel Road", "addr:postcode": null, "amenity": "place_of_worship" }, "geometry": { "type": "Point", "coordinates": [ -75.250105197482128, 39.986096198528692 ] } },
{ "type": "Feature", "properties": { "osm_id": "1276679491", "name": "Sherwood Presbyterian Church", "addr:housenumber": "5543", "addr:street": "Willows Avenue", "addr:postcode": null, "amenity": "place_of_worship" }, "geometry": { "type": "Point", "coordinates": [ -75.230862386058305, 39.942563480611952 ] } },
{ "type": "Feature", "properties": { "osm_id": "1276679492", "name": "Bethany Baptist Church", "addr:housenumber": "5749", "addr:street": "Warrington Avenue", "addr:postcode": null, "amenity": "place_of_worship" }, "geometry": { "type": "Point", "coordinates": [ -75.231217851069758, 39.938303182969698 ] } },
{ "type": "Feature", "properties": { "osm_id": "1279543322", "name": "Saint Peter's Evangelical Lutheran Church", "addr:housenumber": "7401", "addr:street": "Briar Road", "addr:postcode": null, "amenity": "place_of_worship" }, "geometry": { "type": "Point", "coordinates": [ -75.154016557779556, 40.067642234249774 ] } },
{ "type": "Feature", "properties": { "osm_id": "1279543815", "name": "New Beginnings Pentecostal Church", "addr:housenumber": null, "addr:street": "East Haines Street", "addr:postcode": null, "amenity": "place_of_worship" }, "geometry": { "type": "Point", "coordinates": [ -75.170347028737353, 40.044295815771228 ] } },
{ "type": "Feature", "properties": { "osm_id": "1279543816", "name": "Triedstone Church", "addr:housenumber": "6533", "addr:street": "Wyncote Avenue", "addr:postcode": null, "amenity": "place_of_worship" }, "geometry": { "type": "Point", "coordinates": [ -75.155794439786106, 40.053544944108332 ] } },
{ "type": "Feature", "properties": { "osm_id": "1279543818", "name": "New Era Baptist Church", "addr:housenumber": "6618", "addr:street": "Wyncote Avenue", "addr:postcode": null, "amenity": "place_of_worship" }, "geometry": { "type": "Point", "coordinates": [ -75.153980695007618, 40.055570992923052 ] } },
{ "type": "Feature", "properties": { "osm_id": "1279544065", "name": "Holsey Temple Christian Methodist Episcopal Church", "addr:housenumber": null, "addr:street": "Germantown Avenue", "addr:postcode": null, "amenity": "place_of_worship" }, "geometry": { "type": "Point", "coordinates": [ -75.169463114699511, 40.032901462158684 ] } },
{ "type": "Feature", "properties": { "osm_id": "1279997256", "name": "Devereux United Methodist Church", "addr:housenumber": "2527", "addr:street": "West Allegheny Avenue", "addr:postcode": null, "amenity": "place_of_worship" }, "geometry": { "type": "Point", "coordinates": [ -75.171922367327639, 40.004417989765258 ] } },
{ "type": "Feature", "properties": { "osm_id": "1279998008", "name": "Community Church of God", "addr:housenumber": "838 1/2", "addr:street": "North 42nd Street", "addr:postcode": null, "amenity": "place_of_worship" }, "geometry": { "type": "Point", "coordinates": [ -75.208160903917403, 39.968077266795518 ] } },
{ "type": "Feature", "properties": { "osm_id": "1280419793", "name": "Grace United Methodist Church", "addr:housenumber": "7101", "addr:street": "North 20th Street", "addr:postcode": null, "amenity": "place_of_worship" }, "geometry": { "type": "Point", "coordinates": [ -75.151157759729671, 40.062674822370987 ] } },
{ "type": "Feature", "properties": { "osm_id": "1280420241", "name": "St. Mark's Lutheran Church", "addr:housenumber": "6340", "addr:street": "North Broad Street", "addr:postcode": null, "amenity": "place_of_worship" }, "geometry": { "type": "Point", "coordinates": [ -75.142698372856898, 40.050249220448372 ] } },
{ "type": "Feature", "properties": { "osm_id": "1280675453", "name": "Peniel Baptist Church", "addr:housenumber": "2515", "addr:street": "Jefferson Street", "addr:postcode": "19121", "amenity": "place_of_worship" }, "geometry": { "type": "Point", "coordinates": [ -75.176814274162396, 39.978404548942741 ] } },
{ "type": "Feature", "properties": { "osm_id": "1305488354", "name": "Eastwick Library", "addr:housenumber": "2851", "addr:street": "Island Avenue", "addr:postcode": "19153", "amenity": "library" }, "geometry": { "type": "Point", "coordinates": [ -75.240336284136816, 39.905956073337329 ] } },
{ "type": "Feature", "properties": { "osm_id": "1306259680", "name": "Celestial Church of Christ", "addr:housenumber": "7030", "addr:street": "Elmwood Avenue", "addr:postcode": "19153", "amenity": "place_of_worship" }, "geometry": { "type": "Point", "coordinates": [ -75.238096253903365, 39.916387357529558 ] } },
{ "type": "Feature", "properties": { "osm_id": "1307595324", "name": "Eglise Evangelique Beraca", "addr:housenumber": "6422", "addr:street": "Dickens Avenue", "addr:postcode": null, "amenity": "place_of_worship" }, "geometry": { "type": "Point", "coordinates": [ -75.229153756660679, 39.921685070675522 ] } },
{ "type": "Feature", "properties": { "osm_id": "1311129910", "name": "Christ Baptist Church", "addr:housenumber": "4036", "addr:street": "Aspen Street", "addr:postcode": null, "amenity": "place_of_worship" }, "geometry": { "type": "Point", "coordinates": [ -75.20417230463454, 39.965866906324742 ] } },
{ "type": "Feature", "properties": { "osm_id": "1311323778", "name": "Church of New Hope and Faith", "addr:housenumber": "661", "addr:street": "North 39th Street", "addr:postcode": null, "amenity": "place_of_worship" }, "geometry": { "type": "Point", "coordinates": [ -75.199730830803276, 39.965025773226067 ] } },
{ "type": "Feature", "properties": { "osm_id": "1311730639", "name": "Ebenezer Redeeming Love Church", "addr:housenumber": "700", "addr:street": "North 36th Street", "addr:postcode": null, "amenity": "place_of_worship" }, "geometry": { "type": "Point", "coordinates": [ -75.195177607904071, 39.966139089143368 ] } },
{ "type": "Feature", "properties": { "osm_id": "1311743240", "name": "Transfiguration Baptist Church", "addr:housenumber": "3732", "addr:street": "Fairmount Avenue", "addr:postcode": null, "amenity": "place_of_worship" }, "geometry": { "type": "Point", "coordinates": [ -75.197622529834106, 39.965538256272346 ] } },
{ "type": "Feature", "properties": { "osm_id": "1314403624", "name": "Spanish Chapel (La Milagrosa)", "addr:housenumber": "1903", "addr:street": "Spring Garden Street", "addr:postcode": "19130", "amenity": "place_of_worship" }, "geometry": { "type": "Point", "coordinates": [ -75.169603521615954, 39.963738008040224 ] } },
{ "type": "Feature", "properties": { "osm_id": "1316457586", "name": "Polite Temple Baptist Church", "addr:housenumber": "40", "addr:street": "East Price Street", "addr:postcode": null, "amenity": "place_of_worship" }, "geometry": { "type": "Point", "coordinates": [ -75.174418860809396, 40.037354311127629 ] } },
{ "type": "Feature", "properties": { "osm_id": "1319894863", "name": "New Hope Holy Commandment Temple", "addr:housenumber": "2929", "addr:street": "Master Street", "addr:postcode": "19121", "amenity": "place_of_worship" }, "geometry": { "type": "Point", "coordinates": [ -75.183933185227403, 39.977883102121517 ] } },
{ "type": "Feature", "properties": { "osm_id": "1319968621", "name": "Acts of the Apostles Church in Jesus Christ", "addr:housenumber": "2801", "addr:street": "Master Street", "addr:postcode": null, "amenity": "place_of_worship" }, "geometry": { "type": "Point", "coordinates": [ -75.181349158607929, 39.977683588803174 ] } },
{ "type": "Feature", "properties": { "osm_id": "1320461976", "name": "United Baptist Church", "addr:housenumber": "1254", "addr:street": "North 25th Street", "addr:postcode": null, "amenity": "place_of_worship" }, "geometry": { "type": "Point", "coordinates": [ -75.177151681533701, 39.975400641144375 ] } },
{ "type": "Feature", "properties": { "osm_id": "1323411667", "name": "Wayland Temple Church", "addr:housenumber": "2500", "addr:street": "Cecil B Moore Avenue", "addr:postcode": "19121", "amenity": "place_of_worship" }, "geometry": { "type": "Point", "coordinates": [ -75.175949681980683, 39.980765283566342 ] } },
{ "type": "Feature", "properties": { "osm_id": "1326370693", "name": "Second Shiloh Baptist Church", "addr:housenumber": "1433", "addr:street": "North 21st Street", "addr:postcode": "19121", "amenity": "place_of_worship" }, "geometry": { "type": "Point", "coordinates": [ -75.169782975317972, 39.976907827317746 ] } },
{ "type": "Feature", "properties": { "osm_id": "1336287005", "name": "Greater Ebenezer Baptist Church", "addr:housenumber": "3200", "addr:street": "North Broad Street", "addr:postcode": "19140", "amenity": "place_of_worship" }, "geometry": { "type": "Point", "coordinates": [ -75.153176419072651, 40.001913517664704 ] } },
{ "type": "Feature", "properties": { "osm_id": "1336469671", "name": "Zion Baptist Church Of Philadelphia", "addr:housenumber": "3600", "addr:street": "North Broad Street", "addr:postcode": "19140", "amenity": "place_of_worship" }, "geometry": { "type": "Point", "coordinates": [ -75.152030996526165, 40.007970610133029 ] } },
{ "type": "Feature", "properties": { "osm_id": "1336505816", "name": "Mount Ephraim Baptist Church", "addr:housenumber": "2201", "addr:street": "West Tioga Street", "addr:postcode": "19140", "amenity": "place_of_worship" }, "geometry": { "type": "Point", "coordinates": [ -75.165053570225425, 40.008215022019037 ] } },
{ "type": "Feature", "properties": { "osm_id": "1336580238", "name": "Taylor Memorial Baptist Church", "addr:housenumber": "3813-21", "addr:street": "Germantown Avenue", "addr:postcode": null, "amenity": "place_of_worship" }, "geometry": { "type": "Point", "coordinates": [ -75.151308963344434, 40.011429172428002 ] } },
{ "type": "Feature", "properties": { "osm_id": "1337388319", "name": "Temple Shalom House of Yahvah", "addr:housenumber": "1524", "addr:street": "West Champlost Avenue", "addr:postcode": "19141", "amenity": "place_of_worship" }, "geometry": { "type": "Point", "coordinates": [ -75.146363106597477, 40.044575608578469 ] } },
{ "type": "Feature", "properties": { "osm_id": "1338334331", "name": "Deliverance Mission", "addr:housenumber": "811", "addr:street": "East Chelten Avenue", "addr:postcode": "19138", "amenity": "place_of_worship" }, "geometry": { "type": "Point", "coordinates": [ -75.164702199250016, 40.045965213612718 ] } },
{ "type": "Feature", "properties": { "osm_id": "1338898312", "name": "Church of the Messiah", "addr:housenumber": "198", "addr:street": "Herman Street", "addr:postcode": null, "amenity": "place_of_worship" }, "geometry": { "type": "Point", "coordinates": [ -75.175278449324239, 40.044571998484045 ] } },
{ "type": "Feature", "properties": { "osm_id": "1340725949", "name": "Saint Helena Catholic Church", "addr:housenumber": "6127", "addr:street": "North 5th Street", "addr:postcode": null, "amenity": "place_of_worship" }, "geometry": { "type": "Point", "coordinates": [ -75.127979650449234, 40.045072765443429 ] } },
{ "type": "Feature", "properties": { "osm_id": "1341005880", "name": "The Peoples Baptist Church", "addr:housenumber": "5039", "addr:street": "Baltimore Avenue", "addr:postcode": null, "amenity": "place_of_worship" }, "geometry": { "type": "Point", "coordinates": [ -75.224824851856994, 39.947990780512413 ] } },
{ "type": "Feature", "properties": { "osm_id": "1342680712", "name": "Berry Long Memorial Methodist Church", "addr:housenumber": "1737", "addr:street": "South 58th Street", "addr:postcode": null, "amenity": "place_of_worship" }, "geometry": { "type": "Point", "coordinates": [ -75.229777470853364, 39.937122515240418 ] } },
{ "type": "Feature", "properties": { "osm_id": "1354649799", "name": "Vietnamese Mennonite Church", "addr:housenumber": "6237", "addr:street": "Woodland Avenue", "addr:postcode": null, "amenity": "place_of_worship" }, "geometry": { "type": "Point", "coordinates": [ -75.231846146605434, 39.927772749199185 ] } },
{ "type": "Feature", "properties": { "osm_id": "1354651873", "name": "Eternal Life Missionary Baptist Church", "addr:housenumber": "2001", "addr:street": "South 65th Street", "addr:postcode": "19142", "amenity": "place_of_worship" }, "geometry": { "type": "Point", "coordinates": [ -75.23602256153066, 39.927263371783305 ] } },
{ "type": "Feature", "properties": { "osm_id": "1354665527", "name": "Full Gospel Living Word Ministry Int'l", "addr:housenumber": "7039", "addr:street": "Greenway Avenue", "addr:postcode": "19153", "amenity": "place_of_worship" }, "geometry": { "type": "Point", "coordinates": [ -75.24429852817299, 39.920853019919079 ] } }
]
}
